{"type": "FeatureCollection", "features": [{"type": "Feature", "properties": {"codigo": "4213", "nome": "Grande Oeste", "municipios": 78}, "geometry": {"type": "Polygon", "coordinates": [[[-53.6182, -27.1873], [-53.6307, -27.2134], [-53.6421, -27.2198], [-53.6487, -27.218], [-53.651, -27.2101], [-53.6479, -27.1913], [-53.6513, -27.1766], [-53.6664, -27.1627], [-53.6751, -27.1607], [-53.6862, -27.1636], [-53.7056, -27.1728], [-53.7177, -27.1825], [-53.7309, -27.1893], [-53.7478, -27.1918], [-53.7516, -27.1881], [-53.76, -27.1623], [-53.7651, -27.1525], [-53.776, -27.1475], [-53.809, -27.1728], [-53.8197, -27.1757], [-53.8371, -27.1684], [-53.8333, -27.1625], [-53.8371, -27.1556], [-53.8287, -27.146], [-53.8126, -27.1449], [-53.7995, -27.1468], [-53.8005, -27.1364], [-53.8199, -27.1391], [-53.8242, -27.1337], [-53.8046, -27.1227], [-53.807, -27.1109], [-53.8176, -27.1047], [-53.8127, -27.0977], [-53.804, -27.108], [-53.7933, -27.1096], [-53.7768, -27.1034], [-53.8015, -27.0863], [-53.8056, -27.0787], [-53.798, -27.066], [-53.8023, -27.041], [-53.7967, -27.0395], [-53.785, -27.0542], [-53.77, -27.0675], [-53.7601, -27.0606], [-53.7703, -27.0562], [-53.7773, -27.0493], [-53.7789, -27.0396], [-53.7854, -27.0296], [-53.7799, -27.0274], [-53.7626, -27.0445], [-53.7603, -27.0346], [-53.7475, -27.0315], [-53.7498, -27.0222], [-53.7583, -27.0189], [-53.7641, -27.0087], [-53.7552, -27.0047], [-53.741, -27.0148], [-53.7327, -27.0042], [-53.7435, -26.9949], [-53.7418, -26.9908], [-53.7244, -26.9939], [-53.7187, -26.9842], [-53.7301, -26.9804], [-53.7315, -26.9736], [-53.7267, -26.9591], [-53.7124, -26.9655], [-53.7031, -26.9594], [-53.7014, -26.954], [-53.7097, -26.9406], [-53.7072, -26.9333], [-53.6949, -26.937], [-53.6865, -26.9432], [-53.6758, -26.9462], [-53.6717, -26.9428], [-53.6926, -26.9339], [-53.697, -26.9274], [-53.6786, -26.9152], [-53.68, -26.9031], [-53.6754, -26.8928], [-53.6943, -26.8891], [-53.6958, -26.8837], [-53.6855, -26.8668], [-53.6882, -26.8607], [-53.6722, -26.8617], [-53.6712, -26.8534], [-53.6773, -26.8439], [-53.6943, -26.8482], [-53.6891, -26.8395], [-53.6984, -26.8293], [-53.7022, -26.8184], [-53.6976, -26.812], [-53.7009, -26.7975], [-53.7087, -26.7986], [-53.7158, -26.7898], [-53.7175, -26.7823], [-53.7016, -26.7678], [-53.715, -26.7666], [-53.7159, -26.773], [-53.7292, -26.7741], [-53.7369, -26.7675], [-53.7192, -26.76], [-53.7144, -26.7508], [-53.7235, -26.7464], [-53.7293, -26.7394], [-53.7396, -26.7424], [-53.75, -26.7417], [-53.7435, -26.7336], [-53.7491, -26.7191], [-53.7347, -26.7169], [-53.7331, -26.7011], [-53.7425, -26.6909], [-53.7265, -26.6921], [-53.7173, -26.6814], [-53.7317, -26.6795], [-53.7264, -26.6672], [-53.7189, -26.6673], [-53.7233, -26.656], [-53.7328, -26.6551], [-53.7368, -26.6456], [-53.7448, -26.648], [-53.7574, -26.6443], [-53.7578, -26.6376], [-53.7499, -26.6359], [-53.7435, -26.6439], [-53.7402, -26.6292], [-53.7309, -26.6226], [-53.7345, -26.6139], [-53.7297, -26.6079], [-53.7307, -26.6007], [-53.7223, -26.5811], [-53.7214, -26.5618], [-53.7093, -26.5627], [-53.7109, -26.5566], [-53.7272, -26.5604], [-53.7266, -26.551], [-53.739, -26.5484], [-53.7328, -26.5392], [-53.7236, -26.5426], [-53.7209, -26.5378], [-53.7228, -26.5277], [-53.7273, -26.5256], [-53.7301, -26.5018], [-53.711, -26.5045], [-53.7025, -26.4898], [-53.7004, -26.4801], [-53.7158, -26.4706], [-53.7041, -26.4638], [-53.6973, -26.4553], [-53.7049, -26.4438], [-53.6978, -26.4402], [-53.6884, -26.4433], [-53.6888, -26.4286], [-53.6993, -26.4228], [-53.7062, -26.4087], [-53.6971, -26.4015], [-53.7073, -26.3954], [-53.6973, -26.3779], [-53.7013, -26.3666], [-53.6899, -26.3592], [-53.6898, -26.3465], [-53.6859, -26.3357], [-53.6711, -26.3307], [-53.6709, -26.3197], [-53.6637, -26.3142], [-53.6625, -26.3072], [-53.6525, -26.2904], [-53.6444, -26.282], [-53.6451, -26.2729], [-53.639, -26.2508], [-53.6291, -26.2578], [-53.621, -26.257], [-53.6038, -26.2597], [-53.5934, -26.2559], [-53.5843, -26.2591], [-53.5823, -26.2723], [-53.5573, -26.2871], [-53.5538, -26.2924], [-53.5438, -26.291], [-53.5229, -26.2922], [-53.5103, -26.3005], [-53.4958, -26.3028], [-53.4724, -26.2897], [-53.465, -26.2928], [-53.4513, -26.2895], [-53.4399, -26.2822], [-53.4309, -26.2821], [-53.4304, -26.2819], [-53.424, -26.2797], [-53.4124, -26.2692], [-53.403, -26.2638], [-53.3994, -26.2538], [-53.3761, -26.2416], [-53.3657, -26.2478], [-53.3502, -26.2513], [-53.3423, -26.2491], [-53.3384, -26.2484], [-53.321, -26.2572], [-53.3044, -26.2584], [-53.2836, -26.2458], [-53.2789, -26.2494], [-53.28, -26.2585], [-53.2684, -26.2624], [-53.2623, -26.2767], [-53.2644, -26.2893], [-53.24, -26.3004], [-53.2355, -26.3102], [-53.2057, -26.3295], [-53.1916, -26.3344], [-53.1827, -26.3445], [-53.1693, -26.3481], [-53.1602, -26.3506], [-53.1509, -26.3445], [-53.1362, -26.3584], [-53.1272, -26.3723], [-53.1178, -26.3769], [-53.1098, -26.3763], [-53.1015, -26.3832], [-53.0933, -26.3825], [-53.0932, -26.392], [-53.0735, -26.3864], [-53.0461, -26.3812], [-53.028, -26.3702], [-53.0124, -26.3627], [-52.9935, -26.3477], [-52.9832, -26.3457], [-52.9795, -26.352], [-52.9678, -26.3539], [-52.9504, -26.3623], [-52.9377, -26.3622], [-52.9258, -26.3607], [-52.9168, -26.3556], [-52.9083, -26.3594], [-52.8818, -26.3596], [-52.8663, -26.3582], [-52.8469, -26.3444], [-52.8422, -26.3488], [-52.8248, -26.3441], [-52.7963, -26.3478], [-52.7909, -26.3521], [-52.7846, -26.3478], [-52.7754, -26.3479], [-52.7628, -26.3536], [-52.7517, -26.3446], [-52.7378, -26.3422], [-52.7266, -26.3476], [-52.7173, -26.3574], [-52.7088, -26.355], [-52.7006, -26.358], [-52.6911, -26.3533], [-52.6802, -26.3527], [-52.6598, -26.3739], [-52.645, -26.3809], [-52.6366, -26.3838], [-52.6308, -26.3927], [-52.6211, -26.3955], [-52.6167, -26.4077], [-52.6027, -26.4154], [-52.5958, -26.4161], [-52.5802, -26.4083], [-52.557, -26.4078], [-52.5528, -26.4116], [-52.5316, -26.4011], [-52.5232, -26.3996], [-52.4919, -26.4211], [-52.478, -26.4209], [-52.4695, -26.4271], [-52.4636, -26.4396], [-52.4495, -26.441], [-52.4426, -26.4381], [-52.4333, -26.4402], [-52.4192, -26.4373], [-52.4031, -26.4282], [-52.3796, -26.4386], [-52.3684, -26.4329], [-52.3567, -26.4398], [-52.3487, -26.4406], [-52.341, -26.4353], [-52.3378, -26.4418], [-52.3118, -26.4388], [-52.3044, -26.4407], [-52.2882, -26.4567], [-52.277, -26.4612], [-52.2622, -26.4545], [-52.2532, -26.4566], [-52.2298, -26.467], [-52.2241, -26.467], [-52.2028, -26.4588], [-52.1905, -26.4462], [-52.1863, -26.4451], [-52.1667, -26.465], [-52.1588, -26.4662], [-52.1477, -26.4724], [-52.1366, -26.4694], [-52.1296, -26.4772], [-52.1116, -26.475], [-52.1005, -26.4817], [-52.0969, -26.4875], [-52.0982, -26.5011], [-52.0938, -26.5133], [-52.0872, -26.5129], [-52.0814, -26.5251], [-52.0652, -26.523], [-52.0606, -26.5297], [-52.0519, -26.5303], [-52.0476, -26.5353], [-52.0343, -26.5398], [-52.0291, -26.5469], [-52.0226, -26.5478], [-52.0143, -26.5615], [-52.0088, -26.5666], [-51.9868, -26.5663], [-51.9822, -26.5694], [-51.9704, -26.5681], [-51.9597, -26.5745], [-51.948, -26.5696], [-51.9283, -26.5844], [-51.9003, -26.5793], [-51.8908, -26.5846], [-51.8827, -26.5852], [-51.8779, -26.5976], [-51.8735, -26.5994], [-51.8602, -26.5963], [-51.8563, -26.5912], [-51.8464, -26.5942], [-51.834, -26.59], [-51.824, -26.5819], [-51.8201, -26.5857], [-51.8218, -26.5963], [-51.8326, -26.6031], [-51.8326, -26.625], [-51.848, -26.6414], [-51.8463, -26.6478], [-51.8519, -26.6545], [-51.8485, -26.6596], [-51.8549, -26.673], [-51.884, -26.6792], [-51.8801, -26.684], [-51.8522, -26.6883], [-51.8554, -26.6951], [-51.8556, -26.7087], [-51.848, -26.7075], [-51.8425, -26.7002], [-51.8341, -26.7026], [-51.8125, -26.7005], [-51.8093, -26.6929], [-51.7815, -26.7071], [-51.7645, -26.7382], [-51.7741, -26.7444], [-51.7836, -26.7595], [-51.7853, -26.7697], [-51.7766, -26.7709], [-51.7768, -26.7805], [-51.7702, -26.7821], [-51.7562, -26.7752], [-51.7425, -26.7821], [-51.7315, -26.7901], [-51.7248, -26.7869], [-51.702, -26.792], [-51.6787, -26.8184], [-51.6877, -26.8213], [-51.7005, -26.8206], [-51.7126, -26.825], [-51.7137, -26.8342], [-51.7246, -26.8465], [-51.7395, -26.851], [-51.7478, -26.8412], [-51.757, -26.8392], [-51.7706, -26.853], [-51.7803, -26.8561], [-51.7877, -26.8503], [-51.7962, -26.8543], [-51.802, -26.8644], [-51.8139, -26.8551], [-51.8184, -26.8612], [-51.8149, -26.8687], [-51.8208, -26.8824], [-51.8197, -26.9025], [-51.8262, -26.9234], [-51.8301, -26.93], [-51.8438, -26.9434], [-51.8489, -26.945], [-51.8619, -26.9396], [-51.8617, -26.9338], [-51.8721, -26.9297], [-51.8815, -26.9391], [-51.8839, -26.9452], [-51.9004, -26.9401], [-51.9201, -26.9302], [-51.9305, -26.9292], [-51.9437, -26.9419], [-51.9517, -26.9394], [-51.966, -26.9473], [-51.9682, -26.9414], [-51.9799, -26.9367], [-51.9852, -26.9422], [-52.003, -26.9412], [-52.0124, -26.948], [-52.0157, -26.9412], [-52.0241, -26.9496], [-52.0329, -26.9423], [-52.0423, -26.9571], [-52.0667, -26.9599], [-52.0726, -26.9465], [-52.0823, -26.9516], [-52.0939, -26.9457], [-52.1093, -26.9544], [-52.1079, -26.9494], [-52.1271, -26.9478], [-52.1339, -26.9318], [-52.1409, -26.9339], [-52.1485, -26.9294], [-52.1545, -26.9263], [-52.1542, -26.9488], [-52.1748, -26.9513], [-52.1929, -26.9595], [-52.2011, -26.9552], [-52.2081, -26.9568], [-52.2145, -26.9492], [-52.2225, -26.9459], [-52.2338, -26.9473], [-52.2429, -26.9455], [-52.254, -26.9385], [-52.2615, -26.9426], [-52.2648, -26.9588], [-52.2807, -26.9467], [-52.2861, -26.9481], [-52.2852, -26.9581], [-52.2993, -26.9605], [-52.2995, -26.9548], [-52.3099, -26.9542], [-52.3128, -26.9602], [-52.3143, -26.9755], [-52.3306, -26.9645], [-52.3383, -26.9647], [-52.3406, -26.9583], [-52.3359, -26.951], [-52.338, -26.9448], [-52.3546, -26.9475], [-52.3483, -26.9524], [-52.3455, -26.9604], [-52.3557, -26.97], [-52.3636, -26.9688], [-52.3765, -26.9724], [-52.374, -26.9819], [-52.3857, -26.9816], [-52.3936, -26.9865], [-52.3926, -26.9974], [-52.4032, -26.9898], [-52.4089, -26.9983], [-52.4166, -27.0005], [-52.419, -27.0064], [-52.4142, -27.0082], [-52.4133, -27.035], [-52.4035, -27.0345], [-52.3999, -27.0902], [-52.3909, -27.0905], [-52.3949, -27.0982], [-52.4037, -27.1043], [-52.3974, -27.1123], [-52.4048, -27.119], [-52.4327, -27.1141], [-52.4427, -27.1243], [-52.4596, -27.1302], [-52.4678, -27.1303], [-52.4893, -27.1142], [-52.5, -27.1121], [-52.5052, -27.1173], [-52.5013, -27.1275], [-52.4892, -27.1341], [-52.4889, -27.1423], [-52.5174, -27.1474], [-52.5073, -27.1595], [-52.4962, -27.1666], [-52.484, -27.1675], [-52.4694, -27.1738], [-52.4558, -27.1759], [-52.4512, -27.1855], [-52.4443, -27.1918], [-52.4337, -27.1944], [-52.4361, -27.1829], [-52.432, -27.1812], [-52.4212, -27.1904], [-52.4137, -27.1826], [-52.4019, -27.1906], [-52.4078, -27.199], [-52.4272, -27.2169], [-52.4325, -27.2178], [-52.4478, -27.2182], [-52.4625, -27.2292], [-52.4798, -27.2355], [-52.4816, -27.2466], [-52.4764, -27.2592], [-52.4793, -27.2659], [-52.493, -27.2672], [-52.5081, -27.2641], [-52.5272, -27.2629], [-52.5363, -27.2601], [-52.5446, -27.2406], [-52.5529, -27.2393], [-52.5665, -27.2493], [-52.5827, -27.2467], [-52.5936, -27.2503], [-52.6054, -27.2611], [-52.6179, -27.2657], [-52.6332, -27.2655], [-52.6449, -27.2617], [-52.6553, -27.2415], [-52.6676, -27.2378], [-52.6764, -27.2457], [-52.6774, -27.2628], [-52.6861, -27.2813], [-52.6915, -27.2844], [-52.7035, -27.2793], [-52.7072, -27.2708], [-52.7063, -27.2561], [-52.7138, -27.2377], [-52.727, -27.236], [-52.734, -27.2427], [-52.7392, -27.2544], [-52.7488, -27.26], [-52.7563, -27.2584], [-52.763, -27.2492], [-52.7631, -27.2384], [-52.7583, -27.2256], [-52.7605, -27.2132], [-52.7748, -27.2075], [-52.7855, -27.206], [-52.801, -27.2034], [-52.8173, -27.2025], [-52.8308, -27.2103], [-52.8397, -27.2113], [-52.8457, -27.2074], [-52.8461, -27.1907], [-52.8429, -27.1805], [-52.8513, -27.1703], [-52.8667, -27.1728], [-52.8851, -27.1827], [-52.8992, -27.1969], [-52.9069, -27.2006], [-52.9293, -27.2041], [-52.9377, -27.1972], [-52.9361, -27.178], [-52.9422, -27.1664], [-52.9567, -27.1633], [-52.9615, -27.1686], [-52.9677, -27.1904], [-52.9685, -27.213], [-52.9712, -27.2178], [-52.9844, -27.2215], [-52.9917, -27.2177], [-53.0, -27.2067], [-53.0026, -27.1976], [-53.0013, -27.1868], [-52.9851, -27.1705], [-52.9829, -27.165], [-52.9849, -27.1534], [-52.9925, -27.14], [-52.9997, -27.1352], [-53.006, -27.1375], [-53.0183, -27.1529], [-53.0262, -27.1586], [-53.0376, -27.1577], [-53.0442, -27.1441], [-53.0448, -27.1339], [-53.0414, -27.1249], [-53.0203, -27.1046], [-53.0178, -27.0931], [-53.0241, -27.0846], [-53.0343, -27.0823], [-53.0482, -27.0837], [-53.0641, -27.0921], [-53.0767, -27.1078], [-53.0784, -27.1211], [-53.0718, -27.1345], [-53.0698, -27.1461], [-53.0712, -27.157], [-53.0802, -27.1643], [-53.1133, -27.1722], [-53.1322, -27.1802], [-53.1396, -27.1757], [-53.1503, -27.1438], [-53.1594, -27.14], [-53.1695, -27.1442], [-53.1739, -27.1558], [-53.175, -27.1716], [-53.1821, -27.1893], [-53.1877, -27.1923], [-53.1972, -27.1927], [-53.2321, -27.1711], [-53.2447, -27.1728], [-53.2596, -27.1833], [-53.2931, -27.1969], [-53.311, -27.2187], [-53.3214, -27.2149], [-53.3225, -27.2099], [-53.3207, -27.1982], [-53.309, -27.1816], [-53.296, -27.1515], [-53.2929, -27.1408], [-53.2962, -27.1324], [-53.3087, -27.1213], [-53.3173, -27.1186], [-53.3372, -27.1215], [-53.3458, -27.121], [-53.3554, -27.1113], [-53.365, -27.0943], [-53.3706, -27.0911], [-53.381, -27.0941], [-53.3956, -27.1134], [-53.3992, -27.1254], [-53.4062, -27.1365], [-53.4179, -27.1444], [-53.4318, -27.1462], [-53.4554, -27.1569], [-53.4642, -27.155], [-53.4763, -27.1389], [-53.4912, -27.1323], [-53.5031, -27.1348], [-53.5071, -27.1394], [-53.5081, -27.1515], [-53.5029, -27.1656], [-53.4897, -27.1804], [-53.4882, -27.1938], [-53.4931, -27.2035], [-53.5075, -27.2042], [-53.5182, -27.2022], [-53.5307, -27.1945], [-53.5478, -27.1764], [-53.5562, -27.1726], [-53.5711, -27.1757], [-53.5914, -27.1875], [-53.5997, -27.1894], [-53.6133, -27.1859], [-53.6182, -27.1873]]]}}, {"type": "Feature", "properties": {"codigo": "4217", "nome": "Meio Oeste", "municipios": 53}, "geometry": {"type": "Polygon", "coordinates": [[[-51.7173, -27.5114], [-51.7281, -27.5128], [-51.738, -27.5042], [-51.7516, -27.4881], [-51.7597, -27.4868], [-51.7855, -27.4915], [-51.794, -27.4899], [-51.8018, -27.494], [-51.7984, -27.5094], [-51.788, -27.5148], [-51.7857, -27.5282], [-51.7987, -27.53], [-51.8081, -27.5245], [-51.8218, -27.5128], [-51.8315, -27.5154], [-51.8371, -27.5222], [-51.8503, -27.5255], [-51.8554, -27.5183], [-51.8459, -27.4978], [-51.8436, -27.4831], [-51.8476, -27.4785], [-51.8582, -27.4751], [-51.8683, -27.4766], [-51.8761, -27.4816], [-51.8804, -27.4924], [-51.8738, -27.5133], [-51.8806, -27.521], [-51.8948, -27.517], [-51.9025, -27.4914], [-51.9005, -27.4641], [-51.9039, -27.4598], [-51.9184, -27.4584], [-51.9508, -27.4753], [-51.9599, -27.4734], [-51.9621, -27.4615], [-51.9417, -27.4489], [-51.9341, -27.4394], [-51.9358, -27.4287], [-51.9513, -27.4173], [-51.9688, -27.4107], [-51.9964, -27.4102], [-52.0085, -27.4021], [-52.0006, -27.3915], [-51.9822, -27.3886], [-51.9571, -27.3951], [-51.9506, -27.3945], [-51.9489, -27.3858], [-51.9521, -27.3802], [-51.9624, -27.3745], [-51.9752, -27.3724], [-51.9834, -27.3751], [-51.9925, -27.3784], [-52.0064, -27.3746], [-52.0229, -27.3622], [-52.0227, -27.3548], [-52.0108, -27.3466], [-52.0081, -27.3337], [-52.0199, -27.3319], [-52.0384, -27.3442], [-52.049, -27.3463], [-52.072, -27.3384], [-52.0822, -27.3402], [-52.0966, -27.3484], [-52.1071, -27.3434], [-52.1108, -27.3332], [-52.1057, -27.3228], [-52.1057, -27.3134], [-52.112, -27.3063], [-52.1263, -27.3025], [-52.1419, -27.306], [-52.1613, -27.3143], [-52.1691, -27.3093], [-52.1593, -27.2816], [-52.1648, -27.2722], [-52.1723, -27.2715], [-52.1801, -27.2766], [-52.191, -27.2917], [-52.2031, -27.323], [-52.2094, -27.3305], [-52.2248, -27.3306], [-52.2292, -27.3253], [-52.2348, -27.3107], [-52.2481, -27.3024], [-52.273, -27.3044], [-52.2784, -27.2968], [-52.268, -27.2832], [-52.2598, -27.2789], [-52.2418, -27.2761], [-52.234, -27.2692], [-52.2354, -27.2642], [-52.2545, -27.2564], [-52.2613, -27.2569], [-52.2783, -27.2612], [-52.2884, -27.2575], [-52.2988, -27.2575], [-52.3061, -27.2657], [-52.302, -27.2847], [-52.2913, -27.3052], [-52.2921, -27.3143], [-52.2998, -27.3191], [-52.3064, -27.3169], [-52.3131, -27.3093], [-52.3291, -27.3022], [-52.342, -27.2896], [-52.3521, -27.2889], [-52.3675, -27.3045], [-52.3776, -27.3039], [-52.3815, -27.2947], [-52.3833, -27.2813], [-52.3813, -27.2644], [-52.3858, -27.2535], [-52.3947, -27.2518], [-52.3997, -27.2633], [-52.3939, -27.2835], [-52.3978, -27.2925], [-52.4069, -27.2901], [-52.4192, -27.2824], [-52.4391, -27.2644], [-52.4421, -27.2505], [-52.4373, -27.2366], [-52.431, -27.2265], [-52.4325, -27.2178], [-52.4272, -27.2169], [-52.4078, -27.199], [-52.4019, -27.1906], [-52.4137, -27.1826], [-52.4212, -27.1904], [-52.432, -27.1812], [-52.4361, -27.1829], [-52.4337, -27.1944], [-52.4443, -27.1918], [-52.4512, -27.1855], [-52.4558, -27.1759], [-52.4694, -27.1738], [-52.484, -27.1675], [-52.4962, -27.1666], [-52.5073, -27.1595], [-52.5174, -27.1474], [-52.4889, -27.1423], [-52.4892, -27.1341], [-52.5013, -27.1275], [-52.5052, -27.1173], [-52.5, -27.1121], [-52.4893, -27.1142], [-52.4678, -27.1303], [-52.4596, -27.1302], [-52.4427, -27.1243], [-52.4327, -27.1141], [-52.4048, -27.119], [-52.3974, -27.1123], [-52.4037, -27.1043], [-52.3949, -27.0982], [-52.3909, -27.0905], [-52.3999, -27.0902], [-52.4035, -27.0345], [-52.4133, -27.035], [-52.4142, -27.0082], [-52.419, -27.0064], [-52.4166, -27.0005], [-52.4089, -26.9983], [-52.4032, -26.9898], [-52.3926, -26.9974], [-52.3936, -26.9865], [-52.3857, -26.9816], [-52.374, -26.9819], [-52.3765, -26.9724], [-52.3636, -26.9688], [-52.3557, -26.97], [-52.3455, -26.9604], [-52.3483, -26.9524], [-52.3546, -26.9475], [-52.338, -26.9448], [-52.3359, -26.951], [-52.3406, -26.9583], [-52.3383, -26.9647], [-52.3306, -26.9645], [-52.3143, -26.9755], [-52.3128, -26.9602], [-52.3099, -26.9542], [-52.2995, -26.9548], [-52.2993, -26.9605], [-52.2852, -26.9581], [-52.2861, -26.9481], [-52.2807, -26.9467], [-52.2648, -26.9588], [-52.2615, -26.9426], [-52.254, -26.9385], [-52.2429, -26.9455], [-52.2338, -26.9473], [-52.2225, -26.9459], [-52.2145, -26.9492], [-52.2081, -26.9568], [-52.2011, -26.9552], [-52.1929, -26.9595], [-52.1748, -26.9513], [-52.1542, -26.9488], [-52.1545, -26.9263], [-52.1485, -26.9294], [-52.1409, -26.9339], [-52.1339, -26.9318], [-52.1271, -26.9478], [-52.1079, -26.9494], [-52.1093, -26.9544], [-52.0939, -26.9457], [-52.0823, -26.9516], [-52.0726, -26.9465], [-52.0667, -26.9599], [-52.0423, -26.9571], [-52.0329, -26.9423], [-52.0241, -26.9496], [-52.0157, -26.9412], [-52.0124, -26.948], [-52.003, -26.9412], [-51.9852, -26.9422], [-51.9799, -26.9367], [-51.9682, -26.9414], [-51.966, -26.9473], [-51.9517, -26.9394], [-51.9437, -26.9419], [-51.9305, -26.9292], [-51.9201, -26.9302], [-51.9004, -26.9401], [-51.8839, -26.9452], [-51.8815, -26.9391], [-51.8721, -26.9297], [-51.8617, -26.9338], [-51.8619, -26.9396], [-51.8489, -26.945], [-51.8438, -26.9434], [-51.8301, -26.93], [-51.8262, -26.9234], [-51.8197, -26.9025], [-51.8208, -26.8824], [-51.8149, -26.8687], [-51.8184, -26.8612], [-51.8139, -26.8551], [-51.802, -26.8644], [-51.7962, -26.8543], [-51.7877, -26.8503], [-51.7803, -26.8561], [-51.7706, -26.853], [-51.757, -26.8392], [-51.7478, -26.8412], [-51.7395, -26.851], [-51.7246, -26.8465], [-51.7137, -26.8342], [-51.7126, -26.825], [-51.7005, -26.8206], [-51.6877, -26.8213], [-51.6787, -26.8184], [-51.702, -26.792], [-51.7248, -26.7869], [-51.7315, -26.7901], [-51.7425, -26.7821], [-51.7562, -26.7752], [-51.7702, -26.7821], [-51.7768, -26.7805], [-51.7766, -26.7709], [-51.7853, -26.7697], [-51.7836, -26.7595], [-51.7741, -26.7444], [-51.7645, -26.7382], [-51.7815, -26.7071], [-51.8093, -26.6929], [-51.8125, -26.7005], [-51.8341, -26.7026], [-51.8425, -26.7002], [-51.848, -26.7075], [-51.8556, -26.7087], [-51.8554, -26.6951], [-51.8522, -26.6883], [-51.8801, -26.684], [-51.884, -26.6792], [-51.8549, -26.673], [-51.8485, -26.6596], [-51.8519, -26.6545], [-51.8463, -26.6478], [-51.848, -26.6414], [-51.8326, -26.625], [-51.8326, -26.6031], [-51.8218, -26.5963], [-51.8201, -26.5857], [-51.824, -26.5819], [-51.8136, -26.5775], [-51.8084, -26.5849], [-51.7922, -26.5885], [-51.7839, -26.5881], [-51.7599, -26.5811], [-51.7376, -26.573], [-51.7315, -26.5723], [-51.7111, -26.5755], [-51.7038, -26.5808], [-51.6927, -26.5805], [-51.672, -26.5652], [-51.6585, -26.5654], [-51.6424, -26.577], [-51.6325, -26.5872], [-51.6113, -26.5892], [-51.597, -26.5841], [-51.5695, -26.5898], [-51.562, -26.5879], [-51.5512, -26.5909], [-51.5356, -26.5918], [-51.5194, -26.588], [-51.5121, -26.5817], [-51.5078, -26.5809], [-51.4954, -26.5874], [-51.48, -26.606], [-51.4851, -26.6104], [-51.4873, -26.6209], [-51.4688, -26.6212], [-51.4549, -26.6407], [-51.4558, -26.6544], [-51.4395, -26.6672], [-51.4353, -26.6882], [-51.4254, -26.6942], [-51.4073, -26.7006], [-51.4115, -26.7171], [-51.4, -26.7122], [-51.3929, -26.6989], [-51.3928, -26.6849], [-51.4023, -26.6796], [-51.4005, -26.6731], [-51.3911, -26.6632], [-51.3762, -26.6582], [-51.371, -26.66], [-51.347, -26.6486], [-51.3253, -26.6486], [-51.3213, -26.6568], [-51.3104, -26.6512], [-51.2945, -26.6559], [-51.2834, -26.6536], [-51.2835, -26.6424], [-51.2739, -26.6414], [-51.2626, -26.6336], [-51.2584, -26.6255], [-51.2389, -26.6279], [-51.2304, -26.6134], [-51.2368, -26.6079], [-51.228, -26.5957], [-51.2221, -26.5937], [-51.2265, -26.5855], [-51.2248, -26.5756], [-51.2148, -26.5709], [-51.2277, -26.5641], [-51.2281, -26.5546], [-51.2414, -26.5385], [-51.2469, -26.538], [-51.2468, -26.5268], [-51.2509, -26.5191], [-51.2567, -26.5191], [-51.2659, -26.5122], [-51.2732, -26.4983], [-51.2587, -26.4797], [-51.2532, -26.4621], [-51.2748, -26.4593], [-51.2793, -26.4538], [-51.2735, -26.4457], [-51.2929, -26.4341], [-51.2938, -26.4251], [-51.3004, -26.4177], [-51.2893, -26.4152], [-51.2917, -26.4042], [-51.2858, -26.3977], [-51.2743, -26.3986], [-51.2773, -26.3894], [-51.2704, -26.3869], [-51.253, -26.4033], [-51.2343, -26.4065], [-51.2191, -26.4166], [-51.2156, -26.4214], [-51.2014, -26.4272], [-51.2021, -26.4428], [-51.1902, -26.4521], [-51.1569, -26.4298], [-51.1537, -26.4188], [-51.1405, -26.4163], [-51.1315, -26.408], [-51.1275, -26.3992], [-51.1208, -26.4003], [-51.1149, -26.3909], [-51.0999, -26.3937], [-51.0893, -26.3913], [-51.0742, -26.3983], [-51.0615, -26.3978], [-51.0529, -26.4004], [-51.0423, -26.3947], [-51.0322, -26.4035], [-51.0249, -26.4058], [-50.9979, -26.4033], [-50.9854, -26.4049], [-50.9714, -26.4263], [-50.9807, -26.429], [-50.9768, -26.4421], [-50.9888, -26.4487], [-50.9966, -26.4479], [-51.0, -26.457], [-51.0075, -26.4592], [-50.9984, -26.4722], [-50.9951, -26.4838], [-51.0057, -26.4852], [-51.0096, -26.4938], [-50.9918, -26.5084], [-50.9828, -26.51], [-50.9815, -26.5165], [-50.9573, -26.5307], [-50.9517, -26.5446], [-50.9425, -26.5503], [-50.9211, -26.5526], [-50.9155, -26.5462], [-50.9078, -26.5483], [-50.9023, -26.5563], [-50.8889, -26.5547], [-50.856, -26.5606], [-50.8362, -26.55], [-50.8251, -26.5481], [-50.8184, -26.5407], [-50.819, -26.5332], [-50.8103, -26.5226], [-50.8023, -26.5188], [-50.8031, -26.512], [-50.7974, -26.5082], [-50.7872, -26.5074], [-50.7768, -26.5158], [-50.7595, -26.5203], [-50.7528, -26.5194], [-50.7396, -26.5248], [-50.6988, -26.5003], [-50.6872, -26.4976], [-50.6627, -26.5021], [-50.6492, -26.5135], [-50.6445, -26.511], [-50.6209, -26.5392], [-50.6039, -26.5422], [-50.6009, -26.559], [-50.5823, -26.5752], [-50.5793, -26.5843], [-50.5621, -26.5935], [-50.5674, -26.6081], [-50.5639, -26.6095], [-50.5424, -26.6049], [-50.5294, -26.6086], [-50.5194, -26.6352], [-50.5135, -26.6397], [-50.5059, -26.6363], [-50.4923, -26.6426], [-50.4926, -26.6482], [-50.4896, -26.6526], [-50.4797, -26.6533], [-50.469, -26.6624], [-50.4728, -26.6962], [-50.4542, -26.711], [-50.4437, -26.7104], [-50.4322, -26.7151], [-50.4208, -26.7254], [-50.4125, -26.7296], [-50.3855, -26.7391], [-50.3715, -26.7354], [-50.3666, -26.7386], [-50.3536, -26.7367], [-50.3455, -26.742], [-50.3464, -26.7472], [-50.3549, -26.7499], [-50.351, -26.7599], [-50.3257, -26.7616], [-50.315, -26.773], [-50.32, -26.7765], [-50.337, -26.7799], [-50.3346, -26.7929], [-50.3414, -26.8095], [-50.3417, -26.827], [-50.3224, -26.8349], [-50.3082, -26.8366], [-50.3002, -26.8406], [-50.289, -26.8357], [-50.2723, -26.8474], [-50.2693, -26.8541], [-50.2596, -26.8539], [-50.2545, -26.8631], [-50.2665, -26.8708], [-50.2745, -26.8684], [-50.2815, -26.8778], [-50.2612, -26.8813], [-50.2655, -26.8995], [-50.2714, -26.9027], [-50.2722, -26.9132], [-50.2769, -26.9189], [-50.2716, -26.93], [-50.2823, -26.9405], [-50.2821, -26.9524], [-50.2877, -26.9552], [-50.287, -26.9637], [-50.2908, -26.9699], [-50.2949, -26.9723], [-50.2955, -26.9929], [-50.3101, -26.9942], [-50.3092, -27.0084], [-50.3195, -27.0155], [-50.314, -27.0302], [-50.323, -27.0462], [-50.3175, -27.0504], [-50.3236, -27.0596], [-50.3226, -27.0656], [-50.3117, -27.0675], [-50.3153, -27.0755], [-50.3265, -27.0738], [-50.3362, -27.0793], [-50.3489, -27.0936], [-50.3294, -27.1102], [-50.3198, -27.1139], [-50.3134, -27.1305], [-50.3172, -27.1345], [-50.3144, -27.1464], [-50.3038, -27.1524], [-50.3068, -27.1644], [-50.2945, -27.1653], [-50.2866, -27.1693], [-50.2879, -27.1919], [-50.2914, -27.2003], [-50.2892, -27.2143], [-50.2733, -27.2108], [-50.2649, -27.2051], [-50.2658, -27.2256], [-50.2584, -27.2327], [-50.2461, -27.2329], [-50.2435, -27.237], [-50.2367, -27.2424], [-50.2278, -27.2411], [-50.2205, -27.2472], [-50.2039, -27.2435], [-50.1992, -27.2371], [-50.1916, -27.2505], [-50.1834, -27.2542], [-50.1789, -27.2674], [-50.1753, -27.2692], [-50.1893, -27.2754], [-50.1875, -27.2934], [-50.1787, -27.3006], [-50.1878, -27.3257], [-50.1975, -27.3283], [-50.1995, -27.3426], [-50.2084, -27.3464], [-50.3151, -27.3447], [-50.3586, -27.3435], [-50.3687, -27.3453], [-50.3744, -27.3514], [-50.3808, -27.3489], [-50.398, -27.3609], [-50.425, -27.366], [-50.4435, -27.3589], [-50.4518, -27.3677], [-50.4637, -27.3669], [-50.4782, -27.3861], [-50.4814, -27.4025], [-50.4804, -27.427], [-50.4867, -27.4322], [-50.4772, -27.4405], [-50.4825, -27.4463], [-50.4868, -27.4586], [-50.499, -27.4667], [-50.5053, -27.4601], [-50.514, -27.457], [-50.5331, -27.4682], [-50.5255, -27.474], [-50.5224, -27.4877], [-50.5416, -27.4847], [-50.5595, -27.499], [-50.5693, -27.5041], [-50.5778, -27.503], [-50.5714, -27.4828], [-50.5637, -27.4699], [-50.5746, -27.4645], [-50.5837, -27.4691], [-50.5906, -27.4619], [-50.6058, -27.4684], [-50.6145, -27.4617], [-50.6341, -27.4542], [-50.64, -27.4559], [-50.6345, -27.4676], [-50.6472, -27.4627], [-50.6465, -27.4567], [-50.6649, -27.4645], [-50.6697, -27.4708], [-50.6779, -27.4622], [-50.6707, -27.453], [-50.6797, -27.4368], [-50.6893, -27.4421], [-50.6879, -27.4304], [-50.6909, -27.426], [-50.7072, -27.4333], [-50.7185, -27.4265], [-50.7181, -27.4395], [-50.7135, -27.4424], [-50.7153, -27.451], [-50.7241, -27.4509], [-50.7394, -27.4393], [-50.7454, -27.4496], [-50.75, -27.4491], [-50.753, -27.4309], [-50.7421, -27.4277], [-50.7448, -27.4222], [-50.7541, -27.4223], [-50.7618, -27.4272], [-50.7676, -27.4414], [-50.7777, -27.4401], [-50.7821, -27.4309], [-50.789, -27.4286], [-50.7938, -27.4368], [-50.7813, -27.4481], [-50.7877, -27.4597], [-50.8011, -27.4554], [-50.8148, -27.4648], [-50.8177, -27.4541], [-50.823, -27.4516], [-50.832, -27.4633], [-50.8338, -27.4754], [-50.8208, -27.4809], [-50.8082, -27.482], [-50.8012, -27.4883], [-50.8023, -27.4949], [-50.8254, -27.5034], [-50.8347, -27.516], [-50.8467, -27.5087], [-50.8519, -27.5174], [-50.8665, -27.5322], [-50.8614, -27.5442], [-50.8729, -27.5456], [-50.8821, -27.5359], [-50.8871, -27.5368], [-50.8868, -27.5467], [-50.8922, -27.5568], [-50.899, -27.5614], [-50.9039, -27.5515], [-50.902, -27.5388], [-50.906, -27.5334], [-50.9153, -27.5388], [-50.9124, -27.5547], [-50.9185, -27.561], [-50.9304, -27.5583], [-50.9375, -27.5532], [-50.9515, -27.5508], [-50.9601, -27.5552], [-50.9589, -27.559], [-50.9406, -27.5653], [-50.9318, -27.5759], [-50.9349, -27.5796], [-50.9446, -27.5712], [-50.9547, -27.5692], [-50.9689, -27.5713], [-50.9708, -27.5776], [-50.9579, -27.5871], [-50.955, -27.5975], [-50.9634, -27.5981], [-50.9872, -27.6053], [-50.993, -27.6098], [-50.9916, -27.6192], [-50.9686, -27.6343], [-50.9589, -27.6457], [-50.9632, -27.6533], [-50.976, -27.6606], [-50.9916, -27.6587], [-51.0024, -27.6646], [-51.0032, -27.6548], [-50.9951, -27.6474], [-50.9968, -27.6396], [-51.0184, -27.6395], [-51.0264, -27.6429], [-51.0475, -27.6402], [-51.0533, -27.652], [-51.0689, -27.6462], [-51.081, -27.6551], [-51.0879, -27.6547], [-51.0825, -27.6388], [-51.0858, -27.629], [-51.1018, -27.6339], [-51.1141, -27.623], [-51.1205, -27.6209], [-51.13, -27.6236], [-51.1389, -27.6144], [-51.1461, -27.6149], [-51.1555, -27.6247], [-51.1678, -27.6258], [-51.1826, -27.6197], [-51.185, -27.6087], [-51.1768, -27.5999], [-51.1791, -27.5947], [-51.1946, -27.5939], [-51.2008, -27.6012], [-51.2, -27.6122], [-51.2059, -27.6175], [-51.2152, -27.6187], [-51.2131, -27.625], [-51.206, -27.6277], [-51.2056, -27.6358], [-51.1983, -27.6368], [-51.1928, -27.6546], [-51.1999, -27.665], [-51.2105, -27.6707], [-51.209, -27.6774], [-51.2226, -27.7232], [-51.2358, -27.7204], [-51.2438, -27.7293], [-51.2521, -27.7306], [-51.2603, -27.7373], [-51.2733, -27.7355], [-51.2742, -27.7258], [-51.2825, -27.723], [-51.2937, -27.7255], [-51.3088, -27.7195], [-51.3102, -27.7131], [-51.302, -27.7026], [-51.3113, -27.6958], [-51.3151, -27.6751], [-51.3271, -27.671], [-51.3401, -27.6742], [-51.3497, -27.6799], [-51.3601, -27.6788], [-51.3748, -27.6674], [-51.3779, -27.66], [-51.3698, -27.6405], [-51.3722, -27.6335], [-51.3813, -27.6255], [-51.3892, -27.6238], [-51.4053, -27.6319], [-51.4119, -27.6475], [-51.4192, -27.6546], [-51.4324, -27.6556], [-51.437, -27.6521], [-51.4366, -27.6298], [-51.4452, -27.6188], [-51.4573, -27.6075], [-51.4753, -27.6007], [-51.4776, -27.5959], [-51.4766, -27.5794], [-51.4784, -27.5697], [-51.4833, -27.5632], [-51.5019, -27.5561], [-51.517, -27.5577], [-51.5366, -27.5626], [-51.5476, -27.5591], [-51.5549, -27.564], [-51.5564, -27.5752], [-51.5609, -27.5831], [-51.5671, -27.5843], [-51.5784, -27.577], [-51.5874, -27.5632], [-51.5805, -27.5449], [-51.5777, -27.5301], [-51.58, -27.5236], [-51.5908, -27.523], [-51.5994, -27.5286], [-51.6083, -27.5414], [-51.6235, -27.5461], [-51.6311, -27.5415], [-51.6307, -27.5275], [-51.6198, -27.5021], [-51.6231, -27.4933], [-51.6326, -27.4886], [-51.6426, -27.4915], [-51.6462, -27.4973], [-51.6474, -27.5163], [-51.6512, -27.5195], [-51.6647, -27.5173], [-51.6775, -27.5049], [-51.6732, -27.488], [-51.6842, -27.4795], [-51.7012, -27.4798], [-51.7097, -27.4878], [-51.7173, -27.5114]]]}}, {"type": "Feature", "properties": {"codigo": "4218", "nome": "Serra Catarinense", "municipios": 18}, "geometry": {"type": "Polygon", "coordinates": [[[-50.7491, -28.2485], [-50.7539, -28.2446], [-50.7529, -28.2332], [-50.7612, -28.195], [-50.7682, -28.189], [-50.7775, -28.2], [-50.7888, -28.1983], [-50.7892, -28.1892], [-50.7828, -28.176], [-50.7924, -28.1608], [-50.792, -28.1552], [-50.7847, -28.1465], [-50.7941, -28.1386], [-50.8182, -28.1413], [-50.8223, -28.1381], [-50.825, -28.124], [-50.8302, -28.1177], [-50.8368, -28.1194], [-50.859, -28.1397], [-50.872, -28.1374], [-50.8752, -28.1308], [-50.8692, -28.1164], [-50.8701, -28.1059], [-50.8759, -28.0951], [-50.8844, -28.0897], [-50.8994, -28.0897], [-50.9033, -28.0827], [-50.8985, -28.0755], [-50.8859, -28.0718], [-50.8754, -28.0544], [-50.8753, -28.0413], [-50.8897, -28.0229], [-50.908, -28.0149], [-50.9232, -28.012], [-50.9208, -28.0026], [-50.9279, -27.9906], [-50.9232, -27.9796], [-50.924, -27.9717], [-50.9309, -27.9676], [-50.947, -27.9672], [-50.9587, -27.96], [-50.9736, -27.9545], [-50.9784, -27.9482], [-50.986, -27.9405], [-50.9936, -27.946], [-51.0015, -27.9632], [-51.0092, -27.9644], [-51.019, -27.957], [-51.0216, -27.9452], [-51.0163, -27.9333], [-51.0199, -27.9225], [-51.0369, -27.9151], [-51.056, -27.9037], [-51.0583, -27.8968], [-51.0567, -27.8868], [-51.0534, -27.8689], [-51.0571, -27.866], [-51.0786, -27.8616], [-51.0766, -27.8418], [-51.0822, -27.8339], [-51.0983, -27.8274], [-51.121, -27.8326], [-51.1311, -27.8301], [-51.1293, -27.8229], [-51.1346, -27.8037], [-51.1543, -27.8038], [-51.1601, -27.8015], [-51.1878, -27.7777], [-51.1924, -27.7759], [-51.2094, -27.7775], [-51.2196, -27.77], [-51.2263, -27.7712], [-51.2317, -27.7779], [-51.2401, -27.779], [-51.2456, -27.7703], [-51.2455, -27.7614], [-51.2568, -27.7544], [-51.272, -27.7517], [-51.2746, -27.7485], [-51.2733, -27.7355], [-51.2603, -27.7373], [-51.2521, -27.7306], [-51.2438, -27.7293], [-51.2358, -27.7204], [-51.2226, -27.7232], [-51.209, -27.6774], [-51.2105, -27.6707], [-51.1999, -27.665], [-51.1928, -27.6546], [-51.1983, -27.6368], [-51.2056, -27.6358], [-51.206, -27.6277], [-51.2131, -27.625], [-51.2152, -27.6187], [-51.2059, -27.6175], [-51.2, -27.6122], [-51.2008, -27.6012], [-51.1946, -27.5939], [-51.1791, -27.5947], [-51.1768, -27.5999], [-51.185, -27.6087], [-51.1826, -27.6197], [-51.1678, -27.6258], [-51.1555, -27.6247], [-51.1461, -27.6149], [-51.1389, -27.6144], [-51.13, -27.6236], [-51.1205, -27.6209], [-51.1141, -27.623], [-51.1018, -27.6339], [-51.0858, -27.629], [-51.0825, -27.6388], [-51.0879, -27.6547], [-51.081, -27.6551], [-51.0689, -27.6462], [-51.0533, -27.652], [-51.0475, -27.6402], [-51.0264, -27.6429], [-51.0184, -27.6395], [-50.9968, -27.6396], [-50.9951, -27.6474], [-51.0032, -27.6548], [-51.0024, -27.6646], [-50.9916, -27.6587], [-50.976, -27.6606], [-50.9632, -27.6533], [-50.9589, -27.6457], [-50.9686, -27.6343], [-50.9916, -27.6192], [-50.993, -27.6098], [-50.9872, -27.6053], [-50.9634, -27.5981], [-50.955, -27.5975], [-50.9579, -27.5871], [-50.9708, -27.5776], [-50.9689, -27.5713], [-50.9547, -27.5692], [-50.9446, -27.5712], [-50.9349, -27.5796], [-50.9318, -27.5759], [-50.9406, -27.5653], [-50.9589, -27.559], [-50.9601, -27.5552], [-50.9515, -27.5508], [-50.9375, -27.5532], [-50.9304, -27.5583], [-50.9185, -27.561], [-50.9124, -27.5547], [-50.9153, -27.5388], [-50.906, -27.5334], [-50.902, -27.5388], [-50.9039, -27.5515], [-50.899, -27.5614], [-50.8922, -27.5568], [-50.8868, -27.5467], [-50.8871, -27.5368], [-50.8821, -27.5359], [-50.8729, -27.5456], [-50.8614, -27.5442], [-50.8665, -27.5322], [-50.8519, -27.5174], [-50.8467, -27.5087], [-50.8347, -27.516], [-50.8254, -27.5034], [-50.8023, -27.4949], [-50.8012, -27.4883], [-50.8082, -27.482], [-50.8208, -27.4809], [-50.8338, -27.4754], [-50.832, -27.4633], [-50.823, -27.4516], [-50.8177, -27.4541], [-50.8148, -27.4648], [-50.8011, -27.4554], [-50.7877, -27.4597], [-50.7813, -27.4481], [-50.7938, -27.4368], [-50.789, -27.4286], [-50.7821, -27.4309], [-50.7777, -27.4401], [-50.7676, -27.4414], [-50.7618, -27.4272], [-50.7541, -27.4223], [-50.7448, -27.4222], [-50.7421, -27.4277], [-50.753, -27.4309], [-50.75, -27.4491], [-50.7454, -27.4496], [-50.7394, -27.4393], [-50.7241, -27.4509], [-50.7153, -27.451], [-50.7135, -27.4424], [-50.7181, -27.4395], [-50.7185, -27.4265], [-50.7072, -27.4333], [-50.6909, -27.426], [-50.6879, -27.4304], [-50.6893, -27.4421], [-50.6797, -27.4368], [-50.6707, -27.453], [-50.6779, -27.4622], [-50.6697, -27.4708], [-50.6649, -27.4645], [-50.6465, -27.4567], [-50.6472, -27.4627], [-50.6345, -27.4676], [-50.64, -27.4559], [-50.6341, -27.4542], [-50.6145, -27.4617], [-50.6058, -27.4684], [-50.5906, -27.4619], [-50.5837, -27.4691], [-50.5746, -27.4645], [-50.5637, -27.4699], [-50.5714, -27.4828], [-50.5778, -27.503], [-50.5693, -27.5041], [-50.5595, -27.499], [-50.5416, -27.4847], [-50.5224, -27.4877], [-50.5255, -27.474], [-50.5331, -27.4682], [-50.514, -27.457], [-50.5053, -27.4601], [-50.499, -27.4667], [-50.4868, -27.4586], [-50.4825, -27.4463], [-50.4772, -27.4405], [-50.4867, -27.4322], [-50.4804, -27.427], [-50.4814, -27.4025], [-50.4782, -27.3861], [-50.4637, -27.3669], [-50.4518, -27.3677], [-50.4435, -27.3589], [-50.425, -27.366], [-50.398, -27.3609], [-50.3808, -27.3489], [-50.3744, -27.3514], [-50.3687, -27.3453], [-50.3586, -27.3435], [-50.3151, -27.3447], [-50.2084, -27.3464], [-50.1995, -27.3426], [-50.1975, -27.3283], [-50.1878, -27.3257], [-50.1787, -27.3006], [-50.1875, -27.2934], [-50.1893, -27.2754], [-50.1753, -27.2692], [-50.1669, -27.2747], [-50.1536, -27.2749], [-50.1425, -27.2722], [-50.1296, -27.274], [-50.1135, -27.2855], [-50.1095, -27.2924], [-50.0989, -27.2979], [-50.0758, -27.3048], [-50.0647, -27.3109], [-50.0621, -27.3214], [-50.0453, -27.318], [-50.0412, -27.3216], [-50.0264, -27.325], [-50.0234, -27.3358], [-50.0278, -27.3441], [-50.0426, -27.3378], [-50.0442, -27.3474], [-50.0311, -27.3569], [-50.0323, -27.3715], [-50.0141, -27.3794], [-50.0096, -27.3876], [-50.0158, -27.3922], [-50.002, -27.4051], [-49.9961, -27.4135], [-49.9838, -27.4154], [-49.9841, -27.4052], [-49.9709, -27.4124], [-49.9645, -27.4111], [-49.9567, -27.4017], [-49.9417, -27.4197], [-49.9197, -27.4233], [-49.919, -27.4313], [-49.9074, -27.4321], [-49.9108, -27.4376], [-49.9008, -27.4514], [-49.8919, -27.4594], [-49.891, -27.4643], [-49.8937, -27.4902], [-49.8912, -27.4979], [-49.8802, -27.4952], [-49.8653, -27.4986], [-49.8502, -27.4936], [-49.8511, -27.5052], [-49.8399, -27.5245], [-49.8318, -27.5302], [-49.8284, -27.5442], [-49.8073, -27.5627], [-49.7903, -27.5712], [-49.7875, -27.5779], [-49.7787, -27.5861], [-49.7633, -27.581], [-49.763, -27.5895], [-49.7505, -27.5958], [-49.7465, -27.6037], [-49.7321, -27.6193], [-49.7385, -27.6305], [-49.7392, -27.6472], [-49.7307, -27.6556], [-49.7222, -27.6532], [-49.7137, -27.6443], [-49.696, -27.6477], [-49.6896, -27.6525], [-49.6729, -27.6482], [-49.6627, -27.6487], [-49.6504, -27.6424], [-49.6496, -27.6375], [-49.6367, -27.6289], [-49.6295, -27.6197], [-49.6205, -27.6188], [-49.6242, -27.6287], [-49.6401, -27.6481], [-49.6352, -27.6621], [-49.6277, -27.6631], [-49.6171, -27.6596], [-49.6092, -27.6509], [-49.5962, -27.6449], [-49.5884, -27.6445], [-49.5829, -27.6393], [-49.5804, -27.6296], [-49.5735, -27.6319], [-49.5685, -27.6257], [-49.5558, -27.6174], [-49.5066, -27.6007], [-49.505, -27.6119], [-49.5091, -27.6184], [-49.5099, -27.6367], [-49.5042, -27.6539], [-49.4956, -27.6587], [-49.4798, -27.673], [-49.4782, -27.6821], [-49.4685, -27.6874], [-49.4657, -27.701], [-49.4581, -27.7107], [-49.473, -27.73], [-49.4672, -27.7484], [-49.4593, -27.7573], [-49.4418, -27.7611], [-49.4355, -27.7581], [-49.4238, -27.7659], [-49.4303, -27.7732], [-49.4195, -27.7794], [-49.4224, -27.7841], [-49.4154, -27.7911], [-49.4097, -27.7895], [-49.3888, -27.8033], [-49.3775, -27.8145], [-49.3476, -27.8231], [-49.3426, -27.833], [-49.3357, -27.8373], [-49.328, -27.8303], [-49.3139, -27.8317], [-49.3061, -27.8479], [-49.3112, -27.8551], [-49.3033, -27.8581], [-49.2926, -27.8755], [-49.2807, -27.8734], [-49.2835, -27.8811], [-49.2994, -27.9017], [-49.3007, -27.9114], [-49.3058, -27.9164], [-49.3078, -27.941], [-49.3122, -27.959], [-49.3084, -27.9704], [-49.3167, -27.9826], [-49.3224, -27.9838], [-49.3388, -27.9873], [-49.3493, -27.9962], [-49.3471, -28.005], [-49.3545, -28.0137], [-49.3547, -28.0289], [-49.3711, -28.0457], [-49.366, -28.0521], [-49.3676, -28.0622], [-49.372, -28.066], [-49.389, -28.0685], [-49.3968, -28.0738], [-49.3965, -28.081], [-49.4042, -28.0823], [-49.3993, -28.0944], [-49.3886, -28.1034], [-49.3928, -28.1101], [-49.4121, -28.1162], [-49.4322, -28.1138], [-49.4418, -28.1282], [-49.4404, -28.1328], [-49.4534, -28.1392], [-49.4606, -28.1362], [-49.4753, -28.1351], [-49.4746, -28.1258], [-49.4859, -28.1277], [-49.4911, -28.1367], [-49.4905, -28.1457], [-49.5074, -28.1528], [-49.5098, -28.1679], [-49.5163, -28.1778], [-49.5297, -28.1873], [-49.5325, -28.2074], [-49.5296, -28.2135], [-49.5325, -28.2255], [-49.5413, -28.2351], [-49.5347, -28.2415], [-49.5318, -28.253], [-49.5422, -28.2582], [-49.5449, -28.2687], [-49.541, -28.2723], [-49.5295, -28.2666], [-49.523, -28.2755], [-49.5273, -28.2873], [-49.5217, -28.299], [-49.523, -28.307], [-49.5339, -28.3083], [-49.5388, -28.3388], [-49.531, -28.3468], [-49.5354, -28.3508], [-49.5497, -28.3523], [-49.5502, -28.3664], [-49.5583, -28.3719], [-49.5518, -28.3774], [-49.5509, -28.3847], [-49.5437, -28.3879], [-49.5524, -28.3997], [-49.5517, -28.4044], [-49.5668, -28.4163], [-49.5587, -28.4229], [-49.5579, -28.4311], [-49.5503, -28.437], [-49.5353, -28.4361], [-49.5466, -28.4427], [-49.5546, -28.4604], [-49.5625, -28.4675], [-49.5502, -28.4867], [-49.5571, -28.4956], [-49.5625, -28.4951], [-49.5695, -28.5026], [-49.5871, -28.5], [-49.5931, -28.5033], [-49.61, -28.5253], [-49.6205, -28.5325], [-49.6266, -28.5326], [-49.6495, -28.5469], [-49.6488, -28.5555], [-49.6561, -28.5655], [-49.6486, -28.5688], [-49.6468, -28.5897], [-49.6537, -28.6031], [-49.666, -28.6028], [-49.6708, -28.6155], [-49.6854, -28.6209], [-49.6912, -28.6261], [-49.7031, -28.6289], [-49.6914, -28.6214], [-49.7022, -28.6047], [-49.7102, -28.6043], [-49.7121, -28.5909], [-49.708, -28.5822], [-49.726, -28.5695], [-49.7311, -28.551], [-49.7461, -28.5498], [-49.7494, -28.5457], [-49.7467, -28.5354], [-49.7355, -28.5236], [-49.7269, -28.5189], [-49.7388, -28.5085], [-49.7393, -28.5003], [-49.7483, -28.494], [-49.7655, -28.5012], [-49.771, -28.4923], [-49.7652, -28.4843], [-49.7676, -28.4766], [-49.7643, -28.4627], [-49.781, -28.4718], [-49.778, -28.4773], [-49.786, -28.4877], [-49.7823, -28.4967], [-49.7909, -28.4964], [-49.7952, -28.4889], [-49.8038, -28.484], [-49.8088, -28.4692], [-49.8163, -28.469], [-49.8158, -28.4799], [-49.8242, -28.4788], [-49.8393, -28.4965], [-49.8521, -28.4881], [-49.8666, -28.4886], [-49.869, -28.4806], [-49.8629, -28.472], [-49.8636, -28.4628], [-49.8734, -28.4593], [-49.871, -28.4506], [-49.8605, -28.4502], [-49.8542, -28.4447], [-49.8702, -28.4416], [-49.8802, -28.4469], [-49.8929, -28.4403], [-49.898, -28.4456], [-49.8888, -28.4594], [-49.9004, -28.4647], [-49.9186, -28.4583], [-49.9285, -28.4512], [-49.9374, -28.4569], [-49.9289, -28.4668], [-49.9288, -28.4721], [-49.9423, -28.4824], [-49.9466, -28.48], [-49.9514, -28.4669], [-49.9522, -28.4508], [-49.9694, -28.4525], [-49.9708, -28.4402], [-49.981, -28.4406], [-49.9895, -28.4482], [-49.9894, -28.4572], [-50.0025, -28.458], [-50.0139, -28.4508], [-50.0239, -28.4594], [-50.0272, -28.4743], [-50.0395, -28.48], [-50.0514, -28.4761], [-50.0687, -28.4792], [-50.0728, -28.4808], [-50.082, -28.4734], [-50.0909, -28.4756], [-50.0972, -28.4844], [-50.1105, -28.4729], [-50.1222, -28.4763], [-50.1271, -28.4655], [-50.1135, -28.4518], [-50.1114, -28.4454], [-50.1158, -28.4371], [-50.1259, -28.4292], [-50.1294, -28.441], [-50.1392, -28.4432], [-50.1473, -28.4495], [-50.1466, -28.4572], [-50.1605, -28.4595], [-50.1592, -28.4647], [-50.1462, -28.4765], [-50.1394, -28.4933], [-50.1544, -28.4977], [-50.1626, -28.4953], [-50.1622, -28.4793], [-50.1651, -28.4709], [-50.1785, -28.4519], [-50.1883, -28.4535], [-50.1991, -28.4448], [-50.2158, -28.4603], [-50.2226, -28.4633], [-50.2357, -28.457], [-50.2424, -28.432], [-50.2468, -28.4283], [-50.2642, -28.4429], [-50.2503, -28.4471], [-50.2729, -28.4571], [-50.2921, -28.4515], [-50.3013, -28.4393], [-50.3146, -28.4378], [-50.3232, -28.4339], [-50.336, -28.4368], [-50.3404, -28.441], [-50.3368, -28.4558], [-50.3458, -28.4636], [-50.3521, -28.4573], [-50.352, -28.4492], [-50.3476, -28.4348], [-50.351, -28.4249], [-50.3611, -28.4196], [-50.3684, -28.4212], [-50.3769, -28.4349], [-50.3764, -28.4426], [-50.382, -28.447], [-50.3897, -28.4436], [-50.3945, -28.4334], [-50.4248, -28.4333], [-50.4359, -28.431], [-50.4493, -28.4215], [-50.4569, -28.4107], [-50.4704, -28.4149], [-50.5011, -28.4125], [-50.5136, -28.4046], [-50.5284, -28.4041], [-50.5316, -28.4078], [-50.5282, -28.4232], [-50.5309, -28.4286], [-50.5442, -28.4275], [-50.5506, -28.4201], [-50.5654, -28.4132], [-50.5694, -28.4034], [-50.5765, -28.3943], [-50.5932, -28.3816], [-50.6009, -28.3822], [-50.6046, -28.3881], [-50.6139, -28.3936], [-50.6257, -28.3921], [-50.6333, -28.3789], [-50.6288, -28.364], [-50.6455, -28.3483], [-50.6652, -28.3379], [-50.6586, -28.3258], [-50.6649, -28.3128], [-50.6776, -28.3], [-50.6952, -28.2885], [-50.6956, -28.2699], [-50.6993, -28.2663], [-50.7107, -28.2665], [-50.742, -28.2498], [-50.7491, -28.2485]]]}}, {"type": "Feature", "properties": {"codigo": "4210", "nome": "Sul", "municipios": 45}, "geometry": {"type": "Polygon", "coordinates": [[[-49.7494, -29.2974], [-49.7623, -29.3003], [-49.7769, -29.2965], [-49.7801, -29.2907], [-49.7918, -29.2856], [-49.7994, -29.2875], [-49.8157, -29.2859], [-49.8297, -29.276], [-49.8436, -29.2776], [-49.8435, -29.2593], [-49.8547, -29.2573], [-49.8526, -29.2444], [-49.8586, -29.2416], [-49.8571, -29.2331], [-49.8695, -29.2244], [-49.9016, -29.2153], [-49.9129, -29.2079], [-49.925, -29.2062], [-49.9332, -29.2084], [-49.9453, -29.2015], [-49.9576, -29.1995], [-49.9711, -29.2048], [-49.969, -29.2115], [-49.9968, -29.2283], [-50.0099, -29.2254], [-50.0348, -29.2328], [-50.0365, -29.2378], [-50.0501, -29.2418], [-50.0609, -29.2413], [-50.0706, -29.2482], [-50.0893, -29.2543], [-50.0953, -29.2516], [-50.1155, -29.2623], [-50.1085, -29.2801], [-50.0765, -29.3078], [-50.0651, -29.3105], [-50.0512, -29.3241], [-50.0511, -29.3293], [-50.034, -29.3496], [-50.041, -29.3551], [-50.0385, -29.3472], [-50.0468, -29.3404], [-50.0558, -29.3414], [-50.071, -29.3295], [-50.0723, -29.3247], [-50.0858, -29.318], [-50.0915, -29.3108], [-50.0992, -29.3114], [-50.1125, -29.304], [-50.1171, -29.2918], [-50.1304, -29.287], [-50.1283, -29.2979], [-50.1329, -29.3003], [-50.1408, -29.2865], [-50.1489, -29.282], [-50.1446, -29.2702], [-50.1455, -29.2574], [-50.1519, -29.2432], [-50.1411, -29.2383], [-50.1407, -29.2284], [-50.1512, -29.2302], [-50.1489, -29.2211], [-50.1399, -29.2155], [-50.1397, -29.2073], [-50.1456, -29.1978], [-50.1269, -29.1979], [-50.1244, -29.2016], [-50.1078, -29.211], [-50.084, -29.2138], [-50.085, -29.205], [-50.0904, -29.2013], [-50.0854, -29.1936], [-50.0893, -29.1754], [-50.0753, -29.1884], [-50.054, -29.1831], [-50.0434, -29.1837], [-50.0386, -29.1774], [-50.018, -29.1628], [-50.0049, -29.1406], [-50.0071, -29.1344], [-49.9984, -29.1309], [-49.9843, -29.1367], [-49.9918, -29.1173], [-49.9689, -29.116], [-49.9705, -29.1013], [-49.9652, -29.082], [-49.9562, -29.0849], [-49.9545, -29.0775], [-49.9576, -29.0682], [-49.9625, -29.0653], [-49.994, -29.0696], [-49.9898, -29.063], [-49.9772, -29.0588], [-49.961, -29.0508], [-49.9612, -29.0438], [-49.9563, -29.0352], [-49.9461, -29.0308], [-49.9414, -29.0213], [-49.966, -29.0217], [-49.9574, -29.0121], [-49.9463, -28.9951], [-49.9425, -28.9822], [-49.9309, -28.9759], [-49.9337, -28.9658], [-49.9542, -28.9618], [-49.9557, -28.9489], [-49.9598, -28.9356], [-49.9564, -28.929], [-49.9651, -28.9255], [-49.9583, -28.9024], [-49.9515, -28.9005], [-49.9509, -28.8935], [-49.9495, -28.8757], [-49.9568, -28.8704], [-49.9671, -28.8767], [-49.9687, -28.8697], [-49.9571, -28.8618], [-49.9621, -28.8535], [-49.9578, -28.8291], [-49.9647, -28.8284], [-49.9661, -28.8198], [-49.9575, -28.7988], [-49.9622, -28.7776], [-49.9613, -28.7722], [-49.9508, -28.7633], [-49.9534, -28.758], [-49.9457, -28.7519], [-49.937, -28.7567], [-49.9276, -28.7538], [-49.9217, -28.7455], [-49.9314, -28.7379], [-49.9347, -28.7257], [-49.926, -28.7183], [-49.9079, -28.7138], [-49.9049, -28.7185], [-49.8933, -28.7229], [-49.8811, -28.7223], [-49.8918, -28.7392], [-49.8833, -28.7377], [-49.868, -28.722], [-49.8727, -28.7154], [-49.8694, -28.701], [-49.8499, -28.7056], [-49.8402, -28.7131], [-49.8425, -28.7063], [-49.8341, -28.6933], [-49.838, -28.69], [-49.8369, -28.6809], [-49.8404, -28.6761], [-49.8392, -28.6665], [-49.8246, -28.6657], [-49.8108, -28.6519], [-49.8153, -28.6485], [-49.8166, -28.6381], [-49.8088, -28.6353], [-49.8075, -28.6284], [-49.7982, -28.624], [-49.7981, -28.6177], [-49.7826, -28.6098], [-49.7843, -28.6244], [-49.7789, -28.6295], [-49.7566, -28.616], [-49.757, -28.6273], [-49.7443, -28.6243], [-49.7159, -28.6238], [-49.7041, -28.63], [-49.7031, -28.6289], [-49.6912, -28.6261], [-49.6854, -28.6209], [-49.6708, -28.6155], [-49.666, -28.6028], [-49.6537, -28.6031], [-49.6468, -28.5897], [-49.6486, -28.5688], [-49.6561, -28.5655], [-49.6488, -28.5555], [-49.6495, -28.5469], [-49.6266, -28.5326], [-49.6205, -28.5325], [-49.61, -28.5253], [-49.5931, -28.5033], [-49.5871, -28.5], [-49.5695, -28.5026], [-49.5625, -28.4951], [-49.5571, -28.4956], [-49.5502, -28.4867], [-49.5625, -28.4675], [-49.5546, -28.4604], [-49.5466, -28.4427], [-49.5353, -28.4361], [-49.5503, -28.437], [-49.5579, -28.4311], [-49.5587, -28.4229], [-49.5668, -28.4163], [-49.5517, -28.4044], [-49.5524, -28.3997], [-49.5437, -28.3879], [-49.5509, -28.3847], [-49.5518, -28.3774], [-49.5583, -28.3719], [-49.5502, -28.3664], [-49.5497, -28.3523], [-49.5354, -28.3508], [-49.531, -28.3468], [-49.5388, -28.3388], [-49.5339, -28.3083], [-49.523, -28.307], [-49.5217, -28.299], [-49.5273, -28.2873], [-49.523, -28.2755], [-49.5295, -28.2666], [-49.541, -28.2723], [-49.5449, -28.2687], [-49.5422, -28.2582], [-49.5318, -28.253], [-49.5347, -28.2415], [-49.5413, -28.2351], [-49.5325, -28.2255], [-49.5296, -28.2135], [-49.5325, -28.2074], [-49.5297, -28.1873], [-49.5163, -28.1778], [-49.5098, -28.1679], [-49.5074, -28.1528], [-49.4905, -28.1457], [-49.4911, -28.1367], [-49.4859, -28.1277], [-49.4746, -28.1258], [-49.4753, -28.1351], [-49.4606, -28.1362], [-49.4534, -28.1392], [-49.4404, -28.1328], [-49.4418, -28.1282], [-49.4322, -28.1138], [-49.4121, -28.1162], [-49.3928, -28.1101], [-49.3886, -28.1034], [-49.3993, -28.0944], [-49.4042, -28.0823], [-49.3965, -28.081], [-49.3968, -28.0738], [-49.389, -28.0685], [-49.372, -28.066], [-49.3676, -28.0622], [-49.366, -28.0521], [-49.3711, -28.0457], [-49.3547, -28.0289], [-49.3545, -28.0137], [-49.3471, -28.005], [-49.3493, -27.9962], [-49.3388, -27.9873], [-49.3224, -27.9838], [-49.3167, -27.9826], [-49.3084, -27.9704], [-49.3122, -27.959], [-49.3078, -27.941], [-49.2873, -27.9364], [-49.2703, -27.9478], [-49.257, -27.9526], [-49.2409, -27.9512], [-49.2283, -27.9602], [-49.2019, -27.9652], [-49.1934, -27.9692], [-49.186, -27.9802], [-49.1711, -27.9773], [-49.1567, -27.965], [-49.1529, -27.9781], [-49.1448, -27.9968], [-49.1363, -28.0013], [-49.1188, -28.006], [-49.1083, -28.0035], [-49.1035, -28.0065], [-49.052, -27.99], [-49.0449, -27.9939], [-49.0443, -28.0037], [-49.0375, -28.0067], [-49.0353, -28.0152], [-49.0387, -28.0199], [-49.0348, -28.0347], [-49.0222, -28.0425], [-49.0205, -28.0483], [-49.0049, -28.0543], [-48.9976, -28.0652], [-48.9748, -28.0788], [-48.9701, -28.0903], [-48.9695, -28.1081], [-48.9507, -28.108], [-48.9517, -28.098], [-48.9388, -28.0875], [-48.9368, -28.0729], [-48.9319, -28.0722], [-48.9017, -28.0609], [-48.8937, -28.08], [-48.8887, -28.0824], [-48.8742, -28.0724], [-48.869, -28.0804], [-48.8647, -28.0783], [-48.8323, -28.0716], [-48.8259, -28.0762], [-48.8179, -28.074], [-48.8106, -28.0783], [-48.8075, -28.0935], [-48.7927, -28.0945], [-48.7878, -28.0914], [-48.77, -28.0874], [-48.7617, -28.0904], [-48.707, -28.0826], [-48.702, -28.0889], [-48.7015, -28.1023], [-48.6786, -28.1056], [-48.6669, -28.1177], [-48.6343, -28.113], [-48.6422, -28.1284], [-48.6423, -28.1364], [-48.6468, -28.1505], [-48.6516, -28.1544], [-48.6584, -28.1677], [-48.6632, -28.1841], [-48.6613, -28.193], [-48.6672, -28.2138], [-48.6612, -28.2267], [-48.6476, -28.2347], [-48.6651, -28.2467], [-48.6754, -28.2565], [-48.6948, -28.2864], [-48.7029, -28.3041], [-48.7092, -28.3234], [-48.7063, -28.3414], [-48.7172, -28.3518], [-48.7362, -28.379], [-48.7439, -28.3964], [-48.7469, -28.4155], [-48.7461, -28.4271], [-48.756, -28.4404], [-48.7651, -28.4599], [-48.7655, -28.4855], [-48.7603, -28.4953], [-48.7491, -28.4945], [-48.7465, -28.5051], [-48.7534, -28.5081], [-48.7614, -28.5178], [-48.7614, -28.5353], [-48.7704, -28.5384], [-48.7822, -28.5487], [-48.7886, -28.5635], [-48.8038, -28.5752], [-48.8172, -28.5922], [-48.8202, -28.609], [-48.8278, -28.6066], [-48.858, -28.6157], [-48.8621, -28.6167], [-48.9034, -28.6352], [-48.9746, -28.6715], [-49.0056, -28.6904], [-49.0247, -28.7005], [-49.08, -28.7334], [-49.1242, -28.7607], [-49.1879, -28.8022], [-49.1903, -28.8054], [-49.2463, -28.8468], [-49.2901, -28.8832], [-49.2969, -28.89], [-49.3061, -28.8939], [-49.3212, -28.9082], [-49.3567, -28.9383], [-49.3764, -28.9561], [-49.425, -29.0008], [-49.4715, -29.0474], [-49.516, -29.0957], [-49.5397, -29.1221], [-49.5614, -29.1436], [-49.5745, -29.1588], [-49.5971, -29.1826], [-49.6451, -29.2384], [-49.6728, -29.2704], [-49.7104, -29.3171], [-49.7129, -29.3256], [-49.7308, -29.3291], [-49.7466, -29.3238], [-49.7394, -29.3148], [-49.7421, -29.2988], [-49.7494, -29.2974]]]}}, {"type": "Feature", "properties": {"codigo": "4211", "nome": "Planalto Norte e Nordeste", "municipios": 26}, "geometry": {"type": "Polygon", "coordinates": [[[-50.2507, -26.8513], [-50.2545, -26.8631], [-50.2596, -26.8539], [-50.2693, -26.8541], [-50.2723, -26.8474], [-50.289, -26.8357], [-50.3002, -26.8406], [-50.3082, -26.8366], [-50.3224, -26.8349], [-50.3417, -26.827], [-50.3414, -26.8095], [-50.3346, -26.7929], [-50.337, -26.7799], [-50.32, -26.7765], [-50.315, -26.773], [-50.3257, -26.7616], [-50.351, -26.7599], [-50.3549, -26.7499], [-50.3464, -26.7472], [-50.3455, -26.742], [-50.3536, -26.7367], [-50.3666, -26.7386], [-50.3715, -26.7354], [-50.3855, -26.7391], [-50.4125, -26.7296], [-50.4208, -26.7254], [-50.4322, -26.7151], [-50.4437, -26.7104], [-50.4542, -26.711], [-50.4728, -26.6962], [-50.469, -26.6624], [-50.4797, -26.6533], [-50.4896, -26.6526], [-50.4926, -26.6482], [-50.4923, -26.6426], [-50.5059, -26.6363], [-50.5135, -26.6397], [-50.5194, -26.6352], [-50.5294, -26.6086], [-50.5424, -26.6049], [-50.5639, -26.6095], [-50.5674, -26.6081], [-50.5621, -26.5935], [-50.5793, -26.5843], [-50.5823, -26.5752], [-50.6009, -26.559], [-50.6039, -26.5422], [-50.6209, -26.5392], [-50.6445, -26.511], [-50.6492, -26.5135], [-50.6627, -26.5021], [-50.6872, -26.4976], [-50.6988, -26.5003], [-50.7396, -26.5248], [-50.7528, -26.5194], [-50.7595, -26.5203], [-50.7768, -26.5158], [-50.7872, -26.5074], [-50.7974, -26.5082], [-50.8031, -26.512], [-50.8023, -26.5188], [-50.8103, -26.5226], [-50.819, -26.5332], [-50.8184, -26.5407], [-50.8251, -26.5481], [-50.8362, -26.55], [-50.856, -26.5606], [-50.8889, -26.5547], [-50.9023, -26.5563], [-50.9078, -26.5483], [-50.9155, -26.5462], [-50.9211, -26.5526], [-50.9425, -26.5503], [-50.9517, -26.5446], [-50.9573, -26.5307], [-50.9815, -26.5165], [-50.9828, -26.51], [-50.9918, -26.5084], [-51.0096, -26.4938], [-51.0057, -26.4852], [-50.9951, -26.4838], [-50.9984, -26.4722], [-51.0075, -26.4592], [-51.0, -26.457], [-50.9966, -26.4479], [-50.9888, -26.4487], [-50.9768, -26.4421], [-50.9807, -26.429], [-50.9714, -26.4263], [-50.9854, -26.4049], [-50.9979, -26.4033], [-51.0249, -26.4058], [-51.0322, -26.4035], [-51.0423, -26.3947], [-51.0529, -26.4004], [-51.0615, -26.3978], [-51.0742, -26.3983], [-51.0893, -26.3913], [-51.0999, -26.3937], [-51.1149, -26.3909], [-51.1208, -26.4003], [-51.1275, -26.3992], [-51.1315, -26.408], [-51.1405, -26.4163], [-51.1537, -26.4188], [-51.1569, -26.4298], [-51.1902, -26.4521], [-51.2021, -26.4428], [-51.2014, -26.4272], [-51.2156, -26.4214], [-51.2191, -26.4166], [-51.2343, -26.4065], [-51.253, -26.4033], [-51.2704, -26.3869], [-51.2533, -26.3763], [-51.26, -26.3646], [-51.2522, -26.3515], [-51.2565, -26.3441], [-51.248, -26.3299], [-51.2273, -26.324], [-51.2201, -26.3153], [-51.2136, -26.3124], [-51.2072, -26.2963], [-51.2029, -26.2982], [-51.1923, -26.3018], [-51.1809, -26.2991], [-51.1616, -26.2896], [-51.1632, -26.2836], [-51.1484, -26.2788], [-51.1429, -26.2845], [-51.136, -26.2803], [-51.12, -26.2796], [-51.1105, -26.2734], [-51.1018, -26.2727], [-51.0965, -26.2624], [-51.0973, -26.255], [-51.0883, -26.2472], [-51.0858, -26.2336], [-51.0774, -26.2312], [-51.0681, -26.2396], [-51.0568, -26.2439], [-51.0187, -26.236], [-51.0045, -26.2307], [-50.9915, -26.235], [-50.973, -26.2462], [-50.9713, -26.2613], [-50.966, -26.2673], [-50.9528, -26.2698], [-50.9471, -26.2817], [-50.9348, -26.2756], [-50.9316, -26.2685], [-50.9346, -26.2574], [-50.9436, -26.2438], [-50.9409, -26.2338], [-50.9325, -26.2345], [-50.9095, -26.2494], [-50.9066, -26.2572], [-50.9064, -26.2702], [-50.9093, -26.2837], [-50.8997, -26.2893], [-50.8946, -26.2883], [-50.882, -26.2793], [-50.8789, -26.2705], [-50.879, -26.2586], [-50.8732, -26.2459], [-50.8611, -26.2446], [-50.8469, -26.2664], [-50.8356, -26.2711], [-50.8312, -26.2661], [-50.8277, -26.2482], [-50.7999, -26.2313], [-50.7807, -26.2252], [-50.7627, -26.222], [-50.7477, -26.2266], [-50.7449, -26.2348], [-50.7459, -26.2468], [-50.7309, -26.2499], [-50.7156, -26.2446], [-50.7155, -26.2339], [-50.7312, -26.2091], [-50.7299, -26.2034], [-50.7033, -26.188], [-50.6975, -26.1818], [-50.6906, -26.1722], [-50.6828, -26.1536], [-50.669, -26.1418], [-50.6502, -26.1325], [-50.6476, -26.1223], [-50.6565, -26.1069], [-50.6562, -26.1008], [-50.6443, -26.0896], [-50.6405, -26.0788], [-50.6285, -26.0628], [-50.6203, -26.0627], [-50.5948, -26.0704], [-50.5707, -26.0669], [-50.5535, -26.0594], [-50.5494, -26.0465], [-50.5552, -26.0416], [-50.5653, -26.0413], [-50.5757, -26.0466], [-50.5863, -26.0476], [-50.5917, -26.0403], [-50.5932, -26.0271], [-50.5889, -26.0189], [-50.5702, -26.002], [-50.5644, -26.0035], [-50.5557, -26.0182], [-50.5509, -26.0383], [-50.5302, -26.0356], [-50.5133, -26.0261], [-50.5067, -26.0317], [-50.4991, -26.0222], [-50.4937, -26.0264], [-50.4868, -26.024], [-50.4785, -26.0263], [-50.4609, -26.0263], [-50.4438, -26.0343], [-50.4499, -26.0413], [-50.4395, -26.0509], [-50.4371, -26.0576], [-50.4295, -26.063], [-50.4186, -26.061], [-50.4118, -26.0657], [-50.4081, -26.0585], [-50.3837, -26.0706], [-50.3717, -26.0792], [-50.3623, -26.0925], [-50.3657, -26.1121], [-50.3519, -26.1193], [-50.3339, -26.1347], [-50.3217, -26.1339], [-50.3215, -26.1265], [-50.3262, -26.1148], [-50.332, -26.1093], [-50.3331, -26.1004], [-50.3254, -26.0958], [-50.332, -26.0854], [-50.3226, -26.0814], [-50.3201, -26.0702], [-50.3091, -26.064], [-50.2988, -26.0547], [-50.2874, -26.0558], [-50.2727, -26.0489], [-50.2685, -26.0428], [-50.2551, -26.0516], [-50.2508, -26.0504], [-50.2552, -26.0384], [-50.2475, -26.0304], [-50.2363, -26.0355], [-50.2346, -26.0475], [-50.2223, -26.0602], [-50.2083, -26.0573], [-50.1898, -26.07], [-50.1782, -26.0787], [-50.1747, -26.0659], [-50.1682, -26.064], [-50.1545, -26.0474], [-50.1717, -26.0397], [-50.1778, -26.0282], [-50.1487, -26.0233], [-50.1402, -26.0266], [-50.1504, -26.0521], [-50.132, -26.0423], [-50.1242, -26.0508], [-50.1162, -26.051], [-50.1056, -26.0574], [-50.0892, -26.0416], [-50.0868, -26.0285], [-50.0789, -26.0251], [-50.08, -26.0386], [-50.0629, -26.0328], [-50.0547, -26.0359], [-50.0392, -26.0276], [-50.0296, -26.028], [-50.0216, -26.032], [-50.0056, -26.0461], [-50.0025, -26.0376], [-50.0111, -26.0263], [-50.0109, -26.0133], [-49.9992, -26.0156], [-49.9934, -26.0114], [-49.9775, -26.0137], [-49.9695, -26.0176], [-49.9631, -26.0276], [-49.9672, -26.0417], [-49.9763, -26.0499], [-49.9724, -26.0584], [-49.9579, -26.0428], [-49.9479, -26.0294], [-49.9541, -26.02], [-49.9443, -26.009], [-49.9341, -26.0189], [-49.9401, -26.0282], [-49.9308, -26.0302], [-49.9148, -26.0254], [-49.9057, -26.0262], [-49.8979, -26.0344], [-49.8911, -26.0294], [-49.8694, -26.0335], [-49.8711, -26.0431], [-49.8639, -26.0478], [-49.8638, -26.0547], [-49.8446, -26.0648], [-49.8385, -26.0636], [-49.8282, -26.0752], [-49.8308, -26.0831], [-49.8242, -26.0939], [-49.8084, -26.0941], [-49.8027, -26.11], [-49.7914, -26.1135], [-49.7852, -26.1059], [-49.78, -26.1185], [-49.7736, -26.1194], [-49.765, -26.1141], [-49.753, -26.1187], [-49.7486, -26.1246], [-49.7481, -26.1404], [-49.7288, -26.1418], [-49.7267, -26.149], [-49.7371, -26.1572], [-49.7275, -26.1714], [-49.7201, -26.1656], [-49.7128, -26.1547], [-49.7015, -26.1593], [-49.6908, -26.1769], [-49.6728, -26.1898], [-49.6694, -26.1858], [-49.654, -26.1869], [-49.6512, -26.2076], [-49.6427, -26.2098], [-49.6343, -26.2026], [-49.6221, -26.2159], [-49.6133, -26.2127], [-49.6033, -26.2147], [-49.6031, -26.2267], [-49.5983, -26.2209], [-49.583, -26.2299], [-49.5782, -26.2137], [-49.567, -26.2334], [-49.5596, -26.237], [-49.5498, -26.2334], [-49.5419, -26.2143], [-49.538, -26.2129], [-49.5225, -26.2213], [-49.5017, -26.2199], [-49.4912, -26.2144], [-49.5, -26.2031], [-49.4897, -26.1991], [-49.4872, -26.1942], [-49.486, -26.1852], [-49.4751, -26.1822], [-49.4622, -26.1712], [-49.4607, -26.1622], [-49.4398, -26.1639], [-49.4292, -26.17], [-49.4214, -26.1661], [-49.4177, -26.1557], [-49.3807, -26.1567], [-49.3608, -26.1374], [-49.3469, -26.1281], [-49.3349, -26.1255], [-49.3334, -26.1192], [-49.3217, -26.11], [-49.3002, -26.1113], [-49.2944, -26.0983], [-49.2946, -26.0892], [-49.2866, -26.0784], [-49.2773, -26.0817], [-49.2676, -26.0769], [-49.2644, -26.0669], [-49.2535, -26.0635], [-49.2532, -26.0499], [-49.2433, -26.044], [-49.2394, -26.0337], [-49.2345, -26.0307], [-49.2264, -26.0299], [-49.2083, -26.0221], [-49.2081, -26.0175], [-49.1974, -26.0153], [-49.1675, -26.0007], [-49.1577, -26.0091], [-49.1386, -26.0135], [-49.1256, -25.9961], [-49.1189, -26.0025], [-49.1059, -26.003], [-49.099, -26.0102], [-49.0915, -26.0101], [-49.0738, -26.0011], [-49.0693, -26.0089], [-49.0546, -26.021], [-49.046, -26.0179], [-49.043, -26.0045], [-49.0295, -26.0046], [-49.0202, -26.0157], [-48.9943, -26.0093], [-48.981, -25.9978], [-48.9791, -25.9889], [-48.9683, -25.9867], [-48.9621, -25.9841], [-48.9587, -25.9932], [-48.9504, -25.99], [-48.9605, -25.9808], [-48.8193, -25.9823], [-48.6821, -25.9837], [-48.677, -25.978], [-48.6689, -25.9792], [-48.6444, -25.9558], [-48.6388, -25.9596], [-48.6404, -25.9674], [-48.6343, -25.9693], [-48.6341, -25.9777], [-48.624, -25.9775], [-48.6136, -25.9817], [-48.6014, -25.9808], [-48.5953, -25.9768], [-48.6012, -25.9963], [-48.6063, -26.0196], [-48.6104, -26.0509], [-48.6101, -26.0656], [-48.6026, -26.0717], [-48.6026, -26.1002], [-48.598, -26.1291], [-48.5886, -26.155], [-48.5809, -26.1639], [-48.5694, -26.1677], [-48.5471, -26.1711], [-48.5404, -26.1701], [-48.5318, -26.1628], [-48.5239, -26.1726], [-48.5277, -26.1851], [-48.5248, -26.2099], [-48.5148, -26.2237], [-48.5031, -26.2259], [-48.5041, -26.2373], [-48.5255, -26.2723], [-48.5465, -26.3105], [-48.5577, -26.336], [-48.5616, -26.3513], [-48.5674, -26.3635], [-48.583, -26.3885], [-48.5901, -26.4023], [-48.5973, -26.4209], [-48.5995, -26.4324], [-48.5972, -26.4493], [-48.5943, -26.4522], [-48.6099, -26.4717], [-48.6347, -26.5134], [-48.6507, -26.5473], [-48.6648, -26.5809], [-48.6759, -26.6107], [-48.6802, -26.6266], [-48.6881, -26.6712], [-48.6872, -26.688], [-48.6793, -26.6979], [-48.6819, -26.7184], [-48.7242, -26.7311], [-48.7379, -26.7336], [-48.7425, -26.7394], [-48.7568, -26.7406], [-48.7636, -26.7351], [-48.7618, -26.7293], [-48.7732, -26.7077], [-48.7899, -26.7056], [-48.8007, -26.7132], [-48.8067, -26.6996], [-48.8016, -26.6812], [-48.8089, -26.6618], [-48.8154, -26.6562], [-48.817, -26.6391], [-48.8301, -26.6404], [-48.8341, -26.6309], [-48.8451, -26.6311], [-48.8563, -26.6345], [-48.8701, -26.6371], [-48.8797, -26.6417], [-48.8845, -26.657], [-48.8984, -26.6585], [-48.9014, -26.6482], [-48.91, -26.6517], [-48.9195, -26.6467], [-48.9202, -26.6601], [-48.9239, -26.6677], [-48.9326, -26.6741], [-48.9378, -26.6844], [-48.9369, -26.693], [-48.9804, -26.7367], [-48.9895, -26.7368], [-48.9952, -26.7472], [-49.013, -26.7457], [-49.0146, -26.7635], [-49.0299, -26.7668], [-49.0362, -26.7725], [-49.0424, -26.7655], [-49.0435, -26.7549], [-49.05, -26.7428], [-49.0403, -26.7352], [-49.0401, -26.7285], [-49.0483, -26.7194], [-49.0492, -26.7093], [-49.0356, -26.6996], [-49.0251, -26.6853], [-49.0182, -26.6846], [-49.032, -26.6616], [-49.0493, -26.6506], [-49.059, -26.6539], [-49.0889, -26.6554], [-49.1018, -26.6596], [-49.1136, -26.6526], [-49.1139, -26.6423], [-49.1102, -26.6308], [-49.1136, -26.626], [-49.1142, -26.6131], [-49.1303, -26.6221], [-49.13, -26.6355], [-49.1536, -26.6462], [-49.1641, -26.6482], [-49.1667, -26.6299], [-49.1753, -26.6138], [-49.1832, -26.6141], [-49.1979, -26.6222], [-49.2078, -26.6171], [-49.2231, -26.6205], [-49.2239, -26.6119], [-49.2361, -26.6169], [-49.2447, -26.614], [-49.2721, -26.6137], [-49.2756, -26.608], [-49.2848, -26.6072], [-49.2894, -26.5986], [-49.2877, -26.5901], [-49.2989, -26.5709], [-49.2897, -26.5611], [-49.2914, -26.5471], [-49.2998, -26.5394], [-49.3195, -26.5421], [-49.3321, -26.5386], [-49.3381, -26.5268], [-49.3565, -26.5133], [-49.3542, -26.5031], [-49.3656, -26.4909], [-49.3771, -26.4885], [-49.405, -26.5013], [-49.4063, -26.5057], [-49.4172, -26.5101], [-49.4241, -26.498], [-49.4414, -26.489], [-49.4525, -26.5018], [-49.4625, -26.5015], [-49.4796, -26.5107], [-49.4919, -26.5084], [-49.5043, -26.5177], [-49.5205, -26.5255], [-49.5379, -26.5229], [-49.5471, -26.5261], [-49.5516, -26.5413], [-49.5621, -26.5485], [-49.5646, -26.566], [-49.5707, -26.5754], [-49.5802, -26.5797], [-49.5785, -26.5957], [-49.5842, -26.6033], [-49.5834, -26.6123], [-49.586, -26.6249], [-49.5937, -26.627], [-49.5989, -26.6345], [-49.6158, -26.6392], [-49.6188, -26.6429], [-49.6198, -26.6579], [-49.6232, -26.6644], [-49.6142, -26.691], [-49.616, -26.7008], [-49.6223, -26.7045], [-49.6393, -26.6923], [-49.6521, -26.6932], [-49.6674, -26.694], [-49.6711, -26.7003], [-49.6811, -26.7029], [-49.6924, -26.6982], [-49.7013, -26.704], [-49.7097, -26.7195], [-49.7177, -26.7225], [-49.7233, -26.7389], [-49.7283, -26.7462], [-49.7265, -26.7609], [-49.7318, -26.7724], [-49.742, -26.7838], [-49.7503, -26.7851], [-49.7534, -26.7774], [-49.7713, -26.7742], [-49.7713, -26.7668], [-49.7825, -26.7508], [-49.7921, -26.7495], [-49.7953, -26.7379], [-49.8031, -26.7293], [-49.8105, -26.7124], [-49.8287, -26.7062], [-49.8397, -26.6889], [-49.8379, -26.6779], [-49.8461, -26.6733], [-49.8472, -26.6661], [-49.8548, -26.6547], [-49.8645, -26.6508], [-49.8725, -26.6531], [-49.8815, -26.6465], [-49.8793, -26.6309], [-49.8814, -26.6195], [-49.8952, -26.6077], [-49.9052, -26.6026], [-49.9136, -26.5845], [-49.9317, -26.5722], [-49.9438, -26.5745], [-49.9551, -26.5684], [-49.9561, -26.5507], [-49.972, -26.5317], [-49.9705, -26.5273], [-49.9829, -26.5201], [-49.983, -26.5157], [-49.9945, -26.5062], [-50.0166, -26.5026], [-50.0215, -26.5047], [-50.0317, -26.5192], [-50.0566, -26.5219], [-50.0669, -26.5196], [-50.0792, -26.526], [-50.0911, -26.524], [-50.1039, -26.5169], [-50.1249, -26.5234], [-50.1248, -26.542], [-50.1307, -26.5525], [-50.1237, -26.5561], [-50.1187, -26.5639], [-50.1315, -26.5866], [-50.1291, -26.6074], [-50.1183, -26.618], [-50.1105, -26.6329], [-50.1213, -26.6298], [-50.1277, -26.6438], [-50.1293, -26.6546], [-50.1351, -26.6642], [-50.1325, -26.6766], [-50.121, -26.6874], [-50.1161, -26.6981], [-50.1145, -26.7105], [-50.118, -26.7323], [-50.121, -26.7374], [-50.1155, -26.7493], [-50.108, -26.7546], [-50.1036, -26.7817], [-50.1057, -26.7886], [-50.0998, -26.8014], [-50.086, -26.81], [-50.0977, -26.8173], [-50.1097, -26.8134], [-50.1231, -26.8023], [-50.1323, -26.804], [-50.1441, -26.7952], [-50.1554, -26.7962], [-50.1621, -26.789], [-50.1728, -26.7925], [-50.1838, -26.8047], [-50.2004, -26.814], [-50.2196, -26.8139], [-50.2293, -26.8307], [-50.2396, -26.8371], [-50.242, -26.8515], [-50.2507, -26.8513]]]}}, {"type": "Feature", "properties": {"codigo": "4214", "nome": "Grande Florianópolis", "municipios": 22}, "geometry": {"type": "MultiPolygon", "coordinates": [[[[-48.9017, -28.0609], [-48.9319, -28.0722], [-48.9368, -28.0729], [-48.9388, -28.0875], [-48.9517, -28.098], [-48.9507, -28.108], [-48.9695, -28.1081], [-48.9701, -28.0903], [-48.9748, -28.0788], [-48.9976, -28.0652], [-49.0049, -28.0543], [-49.0205, -28.0483], [-49.0222, -28.0425], [-49.0348, -28.0347], [-49.0387, -28.0199], [-49.0353, -28.0152], [-49.0375, -28.0067], [-49.0443, -28.0037], [-49.0449, -27.9939], [-49.052, -27.99], [-49.1035, -28.0065], [-49.1083, -28.0035], [-49.1188, -28.006], [-49.1363, -28.0013], [-49.1448, -27.9968], [-49.1529, -27.9781], [-49.1567, -27.965], [-49.1711, -27.9773], [-49.186, -27.9802], [-49.1934, -27.9692], [-49.2019, -27.9652], [-49.2283, -27.9602], [-49.2409, -27.9512], [-49.257, -27.9526], [-49.2703, -27.9478], [-49.2873, -27.9364], [-49.3078, -27.941], [-49.3058, -27.9164], [-49.3007, -27.9114], [-49.2994, -27.9017], [-49.2835, -27.8811], [-49.2807, -27.8734], [-49.2926, -27.8755], [-49.3033, -27.8581], [-49.3112, -27.8551], [-49.3061, -27.8479], [-49.3139, -27.8317], [-49.328, -27.8303], [-49.3357, -27.8373], [-49.3426, -27.833], [-49.3476, -27.8231], [-49.3775, -27.8145], [-49.3888, -27.8033], [-49.4097, -27.7895], [-49.4154, -27.7911], [-49.4224, -27.7841], [-49.4195, -27.7794], [-49.4303, -27.7732], [-49.4238, -27.7659], [-49.4355, -27.7581], [-49.4418, -27.7611], [-49.4593, -27.7573], [-49.4672, -27.7484], [-49.473, -27.73], [-49.4581, -27.7107], [-49.4657, -27.701], [-49.4685, -27.6874], [-49.4782, -27.6821], [-49.4798, -27.673], [-49.4956, -27.6587], [-49.5042, -27.6539], [-49.5099, -27.6367], [-49.5091, -27.6184], [-49.505, -27.6119], [-49.5066, -27.6007], [-49.4958, -27.5936], [-49.4976, -27.5858], [-49.4873, -27.5829], [-49.4805, -27.5711], [-49.4729, -27.5658], [-49.464, -27.5675], [-49.4629, -27.5737], [-49.4524, -27.5744], [-49.4452, -27.5836], [-49.4294, -27.5837], [-49.4234, -27.5789], [-49.4129, -27.562], [-49.4039, -27.5609], [-49.3991, -27.5646], [-49.3891, -27.5637], [-49.3806, -27.5581], [-49.3693, -27.5651], [-49.3545, -27.5627], [-49.3462, -27.5702], [-49.3372, -27.5736], [-49.3227, -27.5888], [-49.3006, -27.5844], [-49.3131, -27.5837], [-49.3185, -27.5722], [-49.3205, -27.564], [-49.3281, -27.5573], [-49.3195, -27.5458], [-49.3264, -27.533], [-49.3265, -27.5253], [-49.3221, -27.518], [-49.3027, -27.4939], [-49.3013, -27.4839], [-49.2926, -27.474], [-49.2976, -27.4484], [-49.2939, -27.4389], [-49.2963, -27.4283], [-49.3069, -27.4147], [-49.3111, -27.3961], [-49.2976, -27.3791], [-49.2936, -27.3708], [-49.2961, -27.3578], [-49.2804, -27.3477], [-49.2784, -27.3339], [-49.2646, -27.3316], [-49.2451, -27.3258], [-49.2334, -27.3277], [-49.2241, -27.3212], [-49.2262, -27.3151], [-49.2216, -27.3088], [-49.2088, -27.301], [-49.2007, -27.2932], [-49.1893, -27.2945], [-49.1773, -27.2916], [-49.1732, -27.2953], [-49.1519, -27.2899], [-49.1465, -27.2837], [-49.1345, -27.2801], [-49.1266, -27.2822], [-49.1222, -27.2756], [-49.1106, -27.2804], [-49.1069, -27.2759], [-49.0882, -27.2771], [-49.0766, -27.2723], [-49.0739, -27.278], [-49.0514, -27.272], [-49.0376, -27.2719], [-49.0289, -27.2662], [-49.0193, -27.256], [-49.0094, -27.2489], [-48.9898, -27.2486], [-48.969, -27.2374], [-48.9612, -27.2263], [-48.9333, -27.212], [-48.9305, -27.2016], [-48.912, -27.197], [-48.9098, -27.1919], [-48.8996, -27.191], [-48.8945, -27.1841], [-48.8819, -27.1845], [-48.877, -27.176], [-48.87, -27.1754], [-48.86, -27.1637], [-48.8494, -27.1571], [-48.8422, -27.1562], [-48.8241, -27.1391], [-48.8124, -27.1346], [-48.8003, -27.146], [-48.7994, -27.1551], [-48.7888, -27.1511], [-48.7787, -27.1518], [-48.7732, -27.1462], [-48.7748, -27.1364], [-48.7563, -27.1345], [-48.7508, -27.1481], [-48.7369, -27.1478], [-48.7251, -27.1426], [-48.7165, -27.1439], [-48.6979, -27.1378], [-48.69, -27.1414], [-48.6912, -27.1487], [-48.6828, -27.1546], [-48.6803, -27.1655], [-48.6862, -27.1734], [-48.6902, -27.1843], [-48.6809, -27.1972], [-48.6691, -27.201], [-48.667, -27.2129], [-48.6586, -27.2152], [-48.6223, -27.211], [-48.6077, -27.2106], [-48.6027, -27.2179], [-48.6083, -27.2214], [-48.6123, -27.2321], [-48.6154, -27.2548], [-48.6154, -27.2719], [-48.6038, -27.3007], [-48.5948, -27.3161], [-48.5851, -27.3199], [-48.5798, -27.3129], [-48.5638, -27.3155], [-48.5534, -27.3141], [-48.5439, -27.3015], [-48.538, -27.3064], [-48.5398, -27.3196], [-48.5336, -27.3329], [-48.5256, -27.3347], [-48.5281, -27.3462], [-48.5348, -27.3496], [-48.5369, -27.3574], [-48.5303, -27.3757], [-48.5344, -27.3835], [-48.5263, -27.4083], [-48.5164, -27.3998], [-48.4835, -27.3783], [-48.4172, -27.3806], [-48.4111, -27.3842], [-48.4143, -27.3948], [-48.4117, -27.4051], [-48.4061, -27.4052], [-48.404, -27.415], [-48.3956, -27.4307], [-48.3891, -27.4375], [-48.3768, -27.4435], [-48.3697, -27.443], [-48.3664, -27.4331], [-48.3588, -27.4406], [-48.3618, -27.4483], [-48.3707, -27.4499], [-48.3771, -27.4648], [-48.3736, -27.4717], [-48.3818, -27.4815], [-48.3942, -27.4923], [-48.4064, -27.5071], [-48.4194, -27.5284], [-48.4293, -27.5552], [-48.4283, -27.5685], [-48.4208, -27.5742], [-48.4177, -27.5892], [-48.4273, -27.5938], [-48.4358, -27.6076], [-48.4319, -27.6153], [-48.4443, -27.6235], [-48.4673, -27.6512], [-48.477, -27.6704], [-48.481, -27.6899], [-48.4958, -27.7041], [-48.5055, -27.724], [-48.5075, -27.7443], [-48.4973, -27.7565], [-48.4883, -27.7553], [-48.4782, -27.7619], [-48.4774, -27.7674], [-48.4848, -27.7714], [-48.4882, -27.7785], [-48.4831, -27.7833], [-48.4883, -27.7907], [-48.4978, -27.795], [-48.508, -27.7896], [-48.5067, -27.7835], [-48.5176, -27.7815], [-48.5253, -27.7852], [-48.5343, -27.7958], [-48.5352, -27.8072], [-48.5404, -27.8151], [-48.5425, -27.8277], [-48.5583, -27.8374], [-48.5662, -27.8338], [-48.5766, -27.844], [-48.5958, -27.8509], [-48.6009, -27.8586], [-48.6021, -27.8676], [-48.5981, -27.8803], [-48.5906, -27.885], [-48.5858, -27.8812], [-48.5731, -27.8856], [-48.5753, -27.8923], [-48.587, -27.9044], [-48.6043, -27.9213], [-48.6209, -27.9449], [-48.6251, -27.9599], [-48.6202, -27.9626], [-48.6283, -27.9745], [-48.6321, -27.9998], [-48.6273, -28.0151], [-48.6162, -28.0233], [-48.6052, -28.019], [-48.6029, -28.0334], [-48.6102, -28.0428], [-48.6063, -28.0523], [-48.6088, -28.0621], [-48.6168, -28.0709], [-48.6252, -28.0745], [-48.6318, -28.0849], [-48.6343, -28.113], [-48.6669, -28.1177], [-48.6786, -28.1056], [-48.7015, -28.1023], [-48.702, -28.0889], [-48.707, -28.0826], [-48.7617, -28.0904], [-48.77, -28.0874], [-48.7878, -28.0914], [-48.7927, -28.0945], [-48.8075, -28.0935], [-48.8106, -28.0783], [-48.8179, -28.074], [-48.8259, -28.0762], [-48.8323, -28.0716], [-48.8647, -28.0783], [-48.869, -28.0804], [-48.8742, -28.0724], [-48.8887, -28.0824], [-48.8937, -28.08], [-48.9017, -28.0609]]], [[[-48.3709, -27.284], [-48.3771, -27.2835], [-48.3697, -27.2711], [-48.3592, -27.2742], [-48.3585, -27.2927], [-48.366, -27.2958], [-48.3709, -27.284]]]]}}, {"type": "Feature", "properties": {"codigo": "4215", "nome": "Foz do Rio Itajaí", "municipios": 11}, "geometry": {"type": "Polygon", "coordinates": [[[-48.6979, -27.1378], [-48.7165, -27.1439], [-48.7251, -27.1426], [-48.7369, -27.1478], [-48.7508, -27.1481], [-48.7563, -27.1345], [-48.7748, -27.1364], [-48.7732, -27.1462], [-48.7787, -27.1518], [-48.7888, -27.1511], [-48.7994, -27.1551], [-48.8003, -27.146], [-48.8124, -27.1346], [-48.8025, -27.1275], [-48.8055, -27.1226], [-48.7985, -27.1159], [-48.7976, -27.1038], [-48.7891, -27.0971], [-48.8064, -27.0901], [-48.8218, -27.0744], [-48.8336, -27.0736], [-48.8439, -27.0677], [-48.8548, -27.0519], [-48.8627, -27.0437], [-48.8624, -27.0332], [-48.8536, -27.0254], [-48.8643, -27.0201], [-48.8685, -27.0119], [-48.8658, -27.0034], [-48.8559, -26.9916], [-48.8432, -26.9636], [-48.854, -26.9207], [-48.851, -26.9082], [-48.8648, -26.9099], [-48.8657, -26.9031], [-48.8745, -26.8962], [-48.8943, -26.8904], [-48.9045, -26.8744], [-48.9255, -26.8585], [-48.9331, -26.8502], [-48.9359, -26.8425], [-48.9426, -26.8433], [-48.9575, -26.8365], [-48.9608, -26.8398], [-48.9824, -26.8291], [-48.9872, -26.8088], [-48.9981, -26.8055], [-49.0059, -26.7838], [-49.0117, -26.7893], [-49.0221, -26.7887], [-49.0303, -26.7784], [-49.0362, -26.7725], [-49.0299, -26.7668], [-49.0146, -26.7635], [-49.013, -26.7457], [-48.9952, -26.7472], [-48.9895, -26.7368], [-48.9804, -26.7367], [-48.9369, -26.693], [-48.9378, -26.6844], [-48.9326, -26.6741], [-48.9239, -26.6677], [-48.9202, -26.6601], [-48.9195, -26.6467], [-48.91, -26.6517], [-48.9014, -26.6482], [-48.8984, -26.6585], [-48.8845, -26.657], [-48.8797, -26.6417], [-48.8701, -26.6371], [-48.8563, -26.6345], [-48.8451, -26.6311], [-48.8341, -26.6309], [-48.8301, -26.6404], [-48.817, -26.6391], [-48.8154, -26.6562], [-48.8089, -26.6618], [-48.8016, -26.6812], [-48.8067, -26.6996], [-48.8007, -26.7132], [-48.7899, -26.7056], [-48.7732, -26.7077], [-48.7618, -26.7293], [-48.7636, -26.7351], [-48.7568, -26.7406], [-48.7425, -26.7394], [-48.7379, -26.7336], [-48.7242, -26.7311], [-48.6819, -26.7184], [-48.6817, -26.7242], [-48.6738, -26.7587], [-48.6677, -26.7681], [-48.6613, -26.7712], [-48.6529, -26.7703], [-48.6485, -26.7627], [-48.6405, -26.7673], [-48.6331, -26.7803], [-48.6202, -26.7894], [-48.6055, -26.7892], [-48.6044, -26.7798], [-48.6, -26.7745], [-48.5876, -26.7913], [-48.5957, -26.8019], [-48.599, -26.8194], [-48.604, -26.826], [-48.6212, -26.8262], [-48.6275, -26.8333], [-48.636, -26.8605], [-48.6432, -26.9001], [-48.6422, -26.9127], [-48.6417, -26.9188], [-48.6305, -26.9294], [-48.6246, -26.9284], [-48.6282, -26.9422], [-48.6283, -26.9601], [-48.6276, -26.9715], [-48.633, -26.972], [-48.6338, -26.9837], [-48.6283, -26.9931], [-48.6137, -27.0051], [-48.6025, -27.0028], [-48.6025, -26.9967], [-48.5884, -26.9967], [-48.5826, -26.9929], [-48.5812, -27.0073], [-48.5707, -27.009], [-48.5816, -27.0296], [-48.5798, -27.0399], [-48.5873, -27.0449], [-48.5891, -27.061], [-48.5952, -27.0691], [-48.5918, -27.0806], [-48.5998, -27.091], [-48.6093, -27.0919], [-48.6139, -27.1005], [-48.6087, -27.1153], [-48.6008, -27.1278], [-48.5856, -27.1449], [-48.565, -27.1555], [-48.5584, -27.1523], [-48.5532, -27.1575], [-48.5374, -27.1505], [-48.5376, -27.1423], [-48.5258, -27.1296], [-48.5241, -27.1224], [-48.5162, -27.1207], [-48.508, -27.1105], [-48.5066, -27.1186], [-48.5088, -27.1186], [-48.514, -27.1315], [-48.5043, -27.1436], [-48.4877, -27.1485], [-48.4817, -27.1533], [-48.488, -27.1637], [-48.4965, -27.1657], [-48.4999, -27.1789], [-48.499, -27.1897], [-48.4915, -27.202], [-48.4838, -27.1989], [-48.4767, -27.2053], [-48.4846, -27.2109], [-48.5157, -27.2166], [-48.501, -27.206], [-48.5029, -27.1941], [-48.5142, -27.1842], [-48.5318, -27.1803], [-48.5423, -27.1826], [-48.5529, -27.1944], [-48.5716, -27.203], [-48.5784, -27.2115], [-48.5827, -27.2096], [-48.5977, -27.219], [-48.6027, -27.2179], [-48.6077, -27.2106], [-48.6223, -27.211], [-48.6586, -27.2152], [-48.667, -27.2129], [-48.6691, -27.201], [-48.6809, -27.1972], [-48.6902, -27.1843], [-48.6862, -27.1734], [-48.6803, -27.1655], [-48.6828, -27.1546], [-48.6912, -27.1487], [-48.69, -27.1414], [-48.6979, -27.1378]]]}}, {"type": "Feature", "properties": {"codigo": "4216", "nome": "Vale do Itajaí", "municipios": 42}, "geometry": {"type": "Polygon", "coordinates": [[[-49.7875, -27.5779], [-49.7903, -27.5712], [-49.8073, -27.5627], [-49.8284, -27.5442], [-49.8318, -27.5302], [-49.8399, -27.5245], [-49.8511, -27.5052], [-49.8502, -27.4936], [-49.8653, -27.4986], [-49.8802, -27.4952], [-49.8912, -27.4979], [-49.8937, -27.4902], [-49.891, -27.4643], [-49.8919, -27.4594], [-49.9008, -27.4514], [-49.9108, -27.4376], [-49.9074, -27.4321], [-49.919, -27.4313], [-49.9197, -27.4233], [-49.9417, -27.4197], [-49.9567, -27.4017], [-49.9645, -27.4111], [-49.9709, -27.4124], [-49.9841, -27.4052], [-49.9838, -27.4154], [-49.9961, -27.4135], [-50.002, -27.4051], [-50.0158, -27.3922], [-50.0096, -27.3876], [-50.0141, -27.3794], [-50.0323, -27.3715], [-50.0311, -27.3569], [-50.0442, -27.3474], [-50.0426, -27.3378], [-50.0278, -27.3441], [-50.0234, -27.3358], [-50.0264, -27.325], [-50.0412, -27.3216], [-50.0453, -27.318], [-50.0621, -27.3214], [-50.0647, -27.3109], [-50.0758, -27.3048], [-50.0989, -27.2979], [-50.1095, -27.2924], [-50.1135, -27.2855], [-50.1296, -27.274], [-50.1425, -27.2722], [-50.1536, -27.2749], [-50.1669, -27.2747], [-50.1753, -27.2692], [-50.1789, -27.2674], [-50.1834, -27.2542], [-50.1916, -27.2505], [-50.1992, -27.2371], [-50.2039, -27.2435], [-50.2205, -27.2472], [-50.2278, -27.2411], [-50.2367, -27.2424], [-50.2435, -27.237], [-50.2461, -27.2329], [-50.2584, -27.2327], [-50.2658, -27.2256], [-50.2649, -27.2051], [-50.2733, -27.2108], [-50.2892, -27.2143], [-50.2914, -27.2003], [-50.2879, -27.1919], [-50.2866, -27.1693], [-50.2945, -27.1653], [-50.3068, -27.1644], [-50.3038, -27.1524], [-50.3144, -27.1464], [-50.3172, -27.1345], [-50.3134, -27.1305], [-50.3198, -27.1139], [-50.3294, -27.1102], [-50.3489, -27.0936], [-50.3362, -27.0793], [-50.3265, -27.0738], [-50.3153, -27.0755], [-50.3117, -27.0675], [-50.3226, -27.0656], [-50.3236, -27.0596], [-50.3175, -27.0504], [-50.323, -27.0462], [-50.314, -27.0302], [-50.3195, -27.0155], [-50.3092, -27.0084], [-50.3101, -26.9942], [-50.2955, -26.9929], [-50.2949, -26.9723], [-50.2908, -26.9699], [-50.287, -26.9637], [-50.2877, -26.9552], [-50.2821, -26.9524], [-50.2823, -26.9405], [-50.2716, -26.93], [-50.2769, -26.9189], [-50.2722, -26.9132], [-50.2714, -26.9027], [-50.2655, -26.8995], [-50.2612, -26.8813], [-50.2815, -26.8778], [-50.2745, -26.8684], [-50.2665, -26.8708], [-50.2545, -26.8631], [-50.2507, -26.8513], [-50.242, -26.8515], [-50.2396, -26.8371], [-50.2293, -26.8307], [-50.2196, -26.8139], [-50.2004, -26.814], [-50.1838, -26.8047], [-50.1728, -26.7925], [-50.1621, -26.789], [-50.1554, -26.7962], [-50.1441, -26.7952], [-50.1323, -26.804], [-50.1231, -26.8023], [-50.1097, -26.8134], [-50.0977, -26.8173], [-50.086, -26.81], [-50.0998, -26.8014], [-50.1057, -26.7886], [-50.1036, -26.7817], [-50.108, -26.7546], [-50.1155, -26.7493], [-50.121, -26.7374], [-50.118, -26.7323], [-50.1145, -26.7105], [-50.1161, -26.6981], [-50.121, -26.6874], [-50.1325, -26.6766], [-50.1351, -26.6642], [-50.1293, -26.6546], [-50.1277, -26.6438], [-50.1213, -26.6298], [-50.1105, -26.6329], [-50.1183, -26.618], [-50.1291, -26.6074], [-50.1315, -26.5866], [-50.1187, -26.5639], [-50.1237, -26.5561], [-50.1307, -26.5525], [-50.1248, -26.542], [-50.1249, -26.5234], [-50.1039, -26.5169], [-50.0911, -26.524], [-50.0792, -26.526], [-50.0669, -26.5196], [-50.0566, -26.5219], [-50.0317, -26.5192], [-50.0215, -26.5047], [-50.0166, -26.5026], [-49.9945, -26.5062], [-49.983, -26.5157], [-49.9829, -26.5201], [-49.9705, -26.5273], [-49.972, -26.5317], [-49.9561, -26.5507], [-49.9551, -26.5684], [-49.9438, -26.5745], [-49.9317, -26.5722], [-49.9136, -26.5845], [-49.9052, -26.6026], [-49.8952, -26.6077], [-49.8814, -26.6195], [-49.8793, -26.6309], [-49.8815, -26.6465], [-49.8725, -26.6531], [-49.8645, -26.6508], [-49.8548, -26.6547], [-49.8472, -26.6661], [-49.8461, -26.6733], [-49.8379, -26.6779], [-49.8397, -26.6889], [-49.8287, -26.7062], [-49.8105, -26.7124], [-49.8031, -26.7293], [-49.7953, -26.7379], [-49.7921, -26.7495], [-49.7825, -26.7508], [-49.7713, -26.7668], [-49.7713, -26.7742], [-49.7534, -26.7774], [-49.7503, -26.7851], [-49.742, -26.7838], [-49.7318, -26.7724], [-49.7265, -26.7609], [-49.7283, -26.7462], [-49.7233, -26.7389], [-49.7177, -26.7225], [-49.7097, -26.7195], [-49.7013, -26.704], [-49.6924, -26.6982], [-49.6811, -26.7029], [-49.6711, -26.7003], [-49.6674, -26.694], [-49.6521, -26.6932], [-49.6393, -26.6923], [-49.6223, -26.7045], [-49.616, -26.7008], [-49.6142, -26.691], [-49.6232, -26.6644], [-49.6198, -26.6579], [-49.6188, -26.6429], [-49.6158, -26.6392], [-49.5989, -26.6345], [-49.5937, -26.627], [-49.586, -26.6249], [-49.5834, -26.6123], [-49.5842, -26.6033], [-49.5785, -26.5957], [-49.5802, -26.5797], [-49.5707, -26.5754], [-49.5646, -26.566], [-49.5621, -26.5485], [-49.5516, -26.5413], [-49.5471, -26.5261], [-49.5379, -26.5229], [-49.5205, -26.5255], [-49.5043, -26.5177], [-49.4919, -26.5084], [-49.4796, -26.5107], [-49.4625, -26.5015], [-49.4525, -26.5018], [-49.4414, -26.489], [-49.4241, -26.498], [-49.4172, -26.5101], [-49.4063, -26.5057], [-49.405, -26.5013], [-49.3771, -26.4885], [-49.3656, -26.4909], [-49.3542, -26.5031], [-49.3565, -26.5133], [-49.3381, -26.5268], [-49.3321, -26.5386], [-49.3195, -26.5421], [-49.2998, -26.5394], [-49.2914, -26.5471], [-49.2897, -26.5611], [-49.2989, -26.5709], [-49.2877, -26.5901], [-49.2894, -26.5986], [-49.2848, -26.6072], [-49.2756, -26.608], [-49.2721, -26.6137], [-49.2447, -26.614], [-49.2361, -26.6169], [-49.2239, -26.6119], [-49.2231, -26.6205], [-49.2078, -26.6171], [-49.1979, -26.6222], [-49.1832, -26.6141], [-49.1753, -26.6138], [-49.1667, -26.6299], [-49.1641, -26.6482], [-49.1536, -26.6462], [-49.13, -26.6355], [-49.1303, -26.6221], [-49.1142, -26.6131], [-49.1136, -26.626], [-49.1102, -26.6308], [-49.1139, -26.6423], [-49.1136, -26.6526], [-49.1018, -26.6596], [-49.0889, -26.6554], [-49.059, -26.6539], [-49.0493, -26.6506], [-49.032, -26.6616], [-49.0182, -26.6846], [-49.0251, -26.6853], [-49.0356, -26.6996], [-49.0492, -26.7093], [-49.0483, -26.7194], [-49.0401, -26.7285], [-49.0403, -26.7352], [-49.05, -26.7428], [-49.0435, -26.7549], [-49.0424, -26.7655], [-49.0362, -26.7725], [-49.0303, -26.7784], [-49.0221, -26.7887], [-49.0117, -26.7893], [-49.0059, -26.7838], [-48.9981, -26.8055], [-48.9872, -26.8088], [-48.9824, -26.8291], [-48.9608, -26.8398], [-48.9575, -26.8365], [-48.9426, -26.8433], [-48.9359, -26.8425], [-48.9331, -26.8502], [-48.9255, -26.8585], [-48.9045, -26.8744], [-48.8943, -26.8904], [-48.8745, -26.8962], [-48.8657, -26.9031], [-48.8648, -26.9099], [-48.851, -26.9082], [-48.854, -26.9207], [-48.8432, -26.9636], [-48.8559, -26.9916], [-48.8658, -27.0034], [-48.8685, -27.0119], [-48.8643, -27.0201], [-48.8536, -27.0254], [-48.8624, -27.0332], [-48.8627, -27.0437], [-48.8548, -27.0519], [-48.8439, -27.0677], [-48.8336, -27.0736], [-48.8218, -27.0744], [-48.8064, -27.0901], [-48.7891, -27.0971], [-48.7976, -27.1038], [-48.7985, -27.1159], [-48.8055, -27.1226], [-48.8025, -27.1275], [-48.8124, -27.1346], [-48.8241, -27.1391], [-48.8422, -27.1562], [-48.8494, -27.1571], [-48.86, -27.1637], [-48.87, -27.1754], [-48.877, -27.176], [-48.8819, -27.1845], [-48.8945, -27.1841], [-48.8996, -27.191], [-48.9098, -27.1919], [-48.912, -27.197], [-48.9305, -27.2016], [-48.9333, -27.212], [-48.9612, -27.2263], [-48.969, -27.2374], [-48.9898, -27.2486], [-49.0094, -27.2489], [-49.0193, -27.256], [-49.0289, -27.2662], [-49.0376, -27.2719], [-49.0514, -27.272], [-49.0739, -27.278], [-49.0766, -27.2723], [-49.0882, -27.2771], [-49.1069, -27.2759], [-49.1106, -27.2804], [-49.1222, -27.2756], [-49.1266, -27.2822], [-49.1345, -27.2801], [-49.1465, -27.2837], [-49.1519, -27.2899], [-49.1732, -27.2953], [-49.1773, -27.2916], [-49.1893, -27.2945], [-49.2007, -27.2932], [-49.2088, -27.301], [-49.2216, -27.3088], [-49.2262, -27.3151], [-49.2241, -27.3212], [-49.2334, -27.3277], [-49.2451, -27.3258], [-49.2646, -27.3316], [-49.2784, -27.3339], [-49.2804, -27.3477], [-49.2961, -27.3578], [-49.2936, -27.3708], [-49.2976, -27.3791], [-49.3111, -27.3961], [-49.3069, -27.4147], [-49.2963, -27.4283], [-49.2939, -27.4389], [-49.2976, -27.4484], [-49.2926, -27.474], [-49.3013, -27.4839], [-49.3027, -27.4939], [-49.3221, -27.518], [-49.3265, -27.5253], [-49.3264, -27.533], [-49.3195, -27.5458], [-49.3281, -27.5573], [-49.3205, -27.564], [-49.3185, -27.5722], [-49.3131, -27.5837], [-49.3006, -27.5844], [-49.3227, -27.5888], [-49.3372, -27.5736], [-49.3462, -27.5702], [-49.3545, -27.5627], [-49.3693, -27.5651], [-49.3806, -27.5581], [-49.3891, -27.5637], [-49.3991, -27.5646], [-49.4039, -27.5609], [-49.4129, -27.562], [-49.4234, -27.5789], [-49.4294, -27.5837], [-49.4452, -27.5836], [-49.4524, -27.5744], [-49.4629, -27.5737], [-49.464, -27.5675], [-49.4729, -27.5658], [-49.4805, -27.5711], [-49.4873, -27.5829], [-49.4976, -27.5858], [-49.4958, -27.5936], [-49.5066, -27.6007], [-49.5558, -27.6174], [-49.5685, -27.6257], [-49.5735, -27.6319], [-49.5804, -27.6296], [-49.5829, -27.6393], [-49.5884, -27.6445], [-49.5962, -27.6449], [-49.6092, -27.6509], [-49.6171, -27.6596], [-49.6277, -27.6631], [-49.6352, -27.6621], [-49.6401, -27.6481], [-49.6242, -27.6287], [-49.6205, -27.6188], [-49.6295, -27.6197], [-49.6367, -27.6289], [-49.6496, -27.6375], [-49.6504, -27.6424], [-49.6627, -27.6487], [-49.6729, -27.6482], [-49.6896, -27.6525], [-49.696, -27.6477], [-49.7137, -27.6443], [-49.7222, -27.6532], [-49.7307, -27.6556], [-49.7392, -27.6472], [-49.7385, -27.6305], [-49.7321, -27.6193], [-49.7465, -27.6037], [-49.7505, -27.5958], [-49.763, -27.5895], [-49.7633, -27.581], [-49.7787, -27.5861], [-49.7875, -27.5779]]]}}]}